{
 "type": "FeatureCollection",
 "features": [
  {
   "type": "Feature",
   "geometry": {
    "type": "Point",
    "coordinates": [
     -82.4658,
     5.0822,
     10
    ]
   },
   "properties": {
    "id": "us6000m2a6",
    "magnitude": 4.6,
    "time": "2024-01-07T01:02:08Z",
    "updated": "2024-03-09T21:39:51Z",
    "longitude": -82.4658,
    "latitude": 5.0822,
    "depth": 10,
    "place": "south of Panama",
    "status": "reviewed",
    "url": "https://earthquake.usgs.gov/earthquakes/eventpage/us6000m2a6"
   }
  },
  {
   "type": "Feature",
   "geometry": {
    "type": "Point",
    "coordinates": [
     -85.8273,
     10.5395,
     51.564
    ]
   },
   "properties": {
    "id": "us6000m385",
    "magnitude": 4.3,
    "time": "2024-01-12T01:44:05Z",
    "updated": "2024-03-31T13:22:07Z",
    "longitude": -85.8273,
    "latitude": 10.5395,
    "depth": 51.564,
    "place": "19 km W of Sardinal, Costa Rica",
    "status": "reviewed",
    "url": "https://earthquake.usgs.gov/earthquakes/eventpage/us6000m385"
   }
  },
  {
   "type": "Feature",
   "geometry": {
    "type": "Point",
    "coordinates": [
     -79.7804,
     7.1797,
     10
    ]
   },
   "properties": {
    "id": "us6000m3yi",
    "magnitude": 4.4,
    "time": "2024-01-16T10:35:22Z",
    "updated": "2024-04-23T15:09:29Z",
    "longitude": -79.7804,
    "latitude": 7.1797,
    "depth": 10,
    "place": "47 km SE of Pedasí, Panama",
    "status": "reviewed",
    "url": "https://earthquake.usgs.gov/earthquakes/eventpage/us6000m3yi"
   }
  },
  {
   "type": "Feature",
   "geometry": {
    "type": "Point",
    "coordinates": [
     -84.1682,
     9.3835,
     47.467
    ]
   },
   "properties": {
    "id": "us6000m501",
    "magnitude": 4.1,
    "time": "2024-01-20T14:38:54Z",
    "updated": "2024-03-29T17:37:55Z",
    "longitude": -84.1682,
    "latitude": 9.3835,
    "depth": 47.467,
    "place": "5 km S of Quepos, Costa Rica",
    "status": "reviewed",
    "url": "https://earthquake.usgs.gov/earthquakes/eventpage/us6000m501"
   }
  },
  {
   "type": "Feature",
   "geometry": {
    "type": "Point",
    "coordinates": [
     -83.7184,
     9.5312,
     55.183
    ]
   },
   "properties": {
    "id": "us7000ltuw",
    "magnitude": 4.4,
    "time": "2024-01-25T23:50:40Z",
    "updated": "2024-03-30T22:33:39Z",
    "longitude": -83.7184,
    "latitude": 9.5312,
    "depth": 55.183,
    "place": "18 km N of San Isidro, Costa Rica",
    "status": "reviewed",
    "url": "https://earthquake.usgs.gov/earthquakes/eventpage/us7000ltuw"
   }
  },
  {
   "type": "Feature",
   "geometry": {
    "type": "Point",
    "coordinates": [
     -77.752,
     5.7787,
     17.402
    ]
   },
   "properties": {
    "id": "us7000lwas",
    "magnitude": 4.4,
    "time": "2024-01-28T06:10:38Z",
    "updated": "2024-03-30T22:35:24Z",
    "longitude": -77.752,
    "latitude": 5.7787,
    "depth": 17.402,
    "place": "53 km W of Nuquí, Colombia",
    "status": "reviewed",
    "url": "https://earthquake.usgs.gov/earthquakes/eventpage/us7000lwas"
   }
  },
  {
   "type": "Feature",
   "geometry": {
    "type": "Point",
    "coordinates": [
     -77.5807,
     6.2056,
     21.804
    ]
   },
   "properties": {
    "id": "us7000luhv",
    "magnitude": 4.5,
    "time": "2024-01-28T08:17:55Z",
    "updated": "2024-03-30T22:34:42Z",
    "longitude": -77.5807,
    "latitude": 6.2056,
    "depth": 21.804,
    "place": "19 km W of Bahía Solano, Colombia",
    "status": "reviewed",
    "url": "https://earthquake.usgs.gov/earthquakes/eventpage/us7000luhv"
   }
  },
  {
   "type": "Feature",
   "geometry": {
    "type": "Point",
    "coordinates": [
     -80.5906,
     7.328,
     16.804
    ]
   },
   "properties": {
    "id": "us7000lxb1",
    "magnitude": 4.8,
    "time": "2024-02-06T13:37:32Z",
    "updated": "2024-04-20T19:33:26Z",
    "longitude": -80.5906,
    "latitude": 7.328,
    "depth": 16.804,
    "place": "11 km S of La Tronosa, Panama",
    "status": "reviewed",
    "url": "https://earthquake.usgs.gov/earthquakes/eventpage/us7000lxb1"
   }
  },
  {
   "type": "Feature",
   "geometry": {
    "type": "Point",
    "coordinates": [
     -82.9428,
     8.2673,
     10
    ]
   },
   "properties": {
    "id": "us7000ly8f",
    "magnitude": 4.4,
    "time": "2024-02-10T07:28:20Z",
    "updated": "2024-04-20T19:35:04Z",
    "longitude": -82.9428,
    "latitude": 8.2673,
    "depth": 10,
    "place": "8 km W of Puerto Armuelles, Panama",
    "status": "reviewed",
    "url": "https://earthquake.usgs.gov/earthquakes/eventpage/us7000ly8f"
   }
  },
  {
   "type": "Feature",
   "geometry": {
    "type": "Point",
    "coordinates": [
     -77.0477,
     7.0504,
     38.654
    ]
   },
   "properties": {
    "id": "us7000lzgv",
    "magnitude": 4.7,
    "time": "2024-02-15T18:27:12Z",
    "updated": "2024-04-24T14:42:03Z",
    "longitude": -77.0477,
    "latitude": 7.0504,
    "depth": 38.654,
    "place": "26 km WNW of Murindó, Colombia",
    "status": "reviewed",
    "url": "https://earthquake.usgs.gov/earthquakes/eventpage/us7000lzgv"
   }
  },
  {
   "type": "Feature",
   "geometry": {
    "type": "Point",
    "coordinates": [
     -83.7243,
     9.3855,
     12.424
    ]
   },
   "properties": {
    "id": "us7000lzsx",
    "magnitude": 4.2,
    "time": "2024-02-17T02:29:26Z",
    "updated": "2024-04-24T14:42:04Z",
    "longitude": -83.7243,
    "latitude": 9.3855,
    "depth": 12.424,
    "place": "3 km NW of San Isidro, Costa Rica",
    "status": "reviewed",
    "url": "https://earthquake.usgs.gov/earthquakes/eventpage/us7000lzsx"
   }
  },
  {
   "type": "Feature",
   "geometry": {
    "type": "Point",
    "coordinates": [
     -77.0365,
     8.3606,
     50.379
    ]
   },
   "properties": {
    "id": "us7000m01m",
    "magnitude": 4.4,
    "time": "2024-02-18T17:42:23Z",
    "updated": "2024-04-24T14:42:05Z",
    "longitude": -77.0365,
    "latitude": 8.3606,
    "depth": 50.379,
    "place": "28 km WSW of Necoclí, Colombia",
    "status": "reviewed",
    "url": "https://earthquake.usgs.gov/earthquakes/eventpage/us7000m01m"
   }
  },
  {
   "type": "Feature",
   "geometry": {
    "type": "Point",
    "coordinates": [
     -76.2307,
     6.8709,
     49.262
    ]
   },
   "properties": {
    "id": "us7000m1gm",
    "magnitude": 4.5,
    "time": "2024-02-25T07:51:09Z",
    "updated": "2024-05-02T15:50:14Z",
    "longitude": -76.2307,
    "latitude": 6.8709,
    "depth": 49.262,
    "place": "7 km WSW of Uramita, Colombia",
    "status": "reviewed",
    "url": "https://earthquake.usgs.gov/earthquakes/eventpage/us7000m1gm"
   }
  },
  {
   "type": "Feature",
   "geometry": {
    "type": "Point",
    "coordinates": [
     -76.7456,
     6.3284,
     51.878
    ]
   },
   "properties": {
    "id": "us6000mfie",
    "magnitude": 4.5,
    "time": "2024-02-27T22:41:52Z",
    "updated": "2024-05-10T21:25:54Z",
    "longitude": -76.7456,
    "latitude": 6.3284,
    "depth": 51.878,
    "place": "29 km SSE of Bellavista, Colombia",
    "status": "reviewed",
    "url": "https://earthquake.usgs.gov/earthquakes/eventpage/us6000mfie"
   }
  },
  {
   "type": "Feature",
   "geometry": {
    "type": "Point",
    "coordinates": [
     -76.2688,
     6.7417,
     37.524
    ]
   },
   "properties": {
    "id": "us7000m46g",
    "magnitude": 4.4,
    "time": "2024-03-04T22:25:56Z",
    "updated": "2024-05-15T17:35:06Z",
    "longitude": -76.2688,
    "latitude": 6.7417,
    "depth": 37.524,
    "place": "15 km WSW of Frontino, Colombia",
    "status": "reviewed",
    "url": "https://earthquake.usgs.gov/earthquakes/eventpage/us7000m46g"
   }
  },
  {
   "type": "Feature",
   "geometry": {
    "type": "Point",
    "coordinates": [
     -84.1576,
     8.4554,
     10
    ]
   },
   "properties": {
    "id": "us6000mjk7",
    "magnitude": 4.5,
    "time": "2024-03-18T10:08:54Z",
    "updated": "2024-05-27T14:19:18Z",
    "longitude": -84.1576,
    "latitude": 8.4554,
    "depth": 10,
    "place": "89 km SW of Puerto Cortés, Costa Rica",
    "status": "reviewed",
    "url": "https://earthquake.usgs.gov/earthquakes/eventpage/us6000mjk7"
   }
  },
  {
   "type": "Feature",
   "geometry": {
    "type": "Point",
    "coordinates": [
     -77.1372,
     5.4232,
     41.556
    ]
   },
   "properties": {
    "id": "us7000m8pn",
    "magnitude": 4.4,
    "time": "2024-03-29T04:38:41Z",
    "updated": "2024-06-01T21:55:48Z",
    "longitude": -77.1372,
    "latitude": 5.4232,
    "depth": 41.556,
    "place": "20 km WSW of Pie de Pató, Colombia",
    "status": "reviewed",
    "url": "https://earthquake.usgs.gov/earthquakes/eventpage/us7000m8pn"
   }
  },
  {
   "type": "Feature",
   "geometry": {
    "type": "Point",
    "coordinates": [
     -83.8935,
     10.2007,
     10
    ]
   },
   "properties": {
    "id": "us7000mam6",
    "magnitude": 4.3,
    "time": "2024-04-06T17:25:40Z",
    "updated": "2024-06-12T21:51:56Z",
    "longitude": -83.8935,
    "latitude": 10.2007,
    "depth": 10,
    "place": "12 km W of Guápiles, Costa Rica",
    "status": "reviewed",
    "url": "https://earthquake.usgs.gov/earthquakes/eventpage/us7000mam6"
   }
  },
  {
   "type": "Feature",
   "geometry": {
    "type": "Point",
    "coordinates": [
     -82.3932,
     5.8994,
     10
    ]
   },
   "properties": {
    "id": "us7000mam4",
    "magnitude": 4.3,
    "time": "2024-04-07T13:45:27Z",
    "updated": "2024-06-12T21:51:56Z",
    "longitude": -82.3932,
    "latitude": 5.8994,
    "depth": 10,
    "place": "232 km SSW of Río Grande, Panama",
    "status": "reviewed",
    "url": "https://earthquake.usgs.gov/earthquakes/eventpage/us7000mam4"
   }
  },
  {
   "type": "Feature",
   "geometry": {
    "type": "Point",
    "coordinates": [
     -85.61,
     11.327,
     193.447
    ]
   },
   "properties": {
    "id": "us7000manz",
    "magnitude": 4.3,
    "time": "2024-04-07T21:28:41Z",
    "updated": "2024-06-12T21:51:56Z",
    "longitude": -85.61,
    "latitude": 11.327,
    "depth": 193.447,
    "place": "18 km NW of Cárdenas, Nicaragua",
    "status": "reviewed",
    "url": "https://earthquake.usgs.gov/earthquakes/eventpage/us7000manz"
   }
  },
  {
   "type": "Feature",
   "geometry": {
    "type": "Point",
    "coordinates": [
     -85.3325,
     11.1271,
     154
    ]
   },
   "properties": {
    "id": "us7000mcrs",
    "magnitude": 5.5,
    "time": "2024-04-17T21:21:54Z",
    "updated": "2024-06-25T21:02:56Z",
    "longitude": -85.3325,
    "latitude": 11.1271,
    "depth": 154,
    "place": "20 km ESE of Cárdenas, Nicaragua",
    "status": "reviewed",
    "url": "https://earthquake.usgs.gov/earthquakes/eventpage/us7000mcrs"
   }
  },
  {
   "type": "Feature",
   "geometry": {
    "type": "Point",
    "coordinates": [
     -84.055,
     8.9686,
     15.199
    ]
   },
   "properties": {
    "id": "us7000mdd4",
    "magnitude": 4.3,
    "time": "2024-04-20T00:59:49Z",
    "updated": "2024-06-25T21:03:11Z",
    "longitude": -84.055,
    "latitude": 8.9686,
    "depth": 15.199,
    "place": "52 km SSE of Quepos, Costa Rica",
    "status": "reviewed",
    "url": "https://earthquake.usgs.gov/earthquakes/eventpage/us7000mdd4"
   }
  },
  {
   "type": "Feature",
   "geometry": {
    "type": "Point",
    "coordinates": [
     -82.372,
     7.5347,
     10
    ]
   },
   "properties": {
    "id": "us6000mtc6",
    "magnitude": 5.4,
    "time": "2024-04-24T01:20:42Z",
    "updated": "2024-07-08T12:20:34Z",
    "longitude": -82.372,
    "latitude": 7.5347,
    "depth": 10,
    "place": "77 km SSW of Boca Chica, Panama",
    "status": "reviewed",
    "url": "https://earthquake.usgs.gov/earthquakes/eventpage/us6000mtc6"
   }
  },
  {
   "type": "Feature",
   "geometry": {
    "type": "Point",
    "coordinates": [
     -82.6111,
     7.8482,
     10
    ]
   },
   "properties": {
    "id": "us6000mvsh",
    "magnitude": 4,
    "time": "2024-04-24T01:35:29Z",
    "updated": "2024-07-02T22:12:56Z",
    "longitude": -82.6111,
    "latitude": 7.8482,
    "depth": 10,
    "place": "35 km SE of Burica, Panama",
    "status": "reviewed",
    "url": "https://earthquake.usgs.gov/earthquakes/eventpage/us6000mvsh"
   }
  },
  {
   "type": "Feature",
   "geometry": {
    "type": "Point",
    "coordinates": [
     -82.5491,
     7.7773,
     10
    ]
   },
   "properties": {
    "id": "us6000mvsk",
    "magnitude": 4,
    "time": "2024-04-24T02:10:28Z",
    "updated": "2024-07-02T22:12:56Z",
    "longitude": -82.5491,
    "latitude": 7.7773,
    "depth": 10,
    "place": "45 km SE of Burica, Panama",
    "status": "reviewed",
    "url": "https://earthquake.usgs.gov/earthquakes/eventpage/us6000mvsk"
   }
  },
  {
   "type": "Feature",
   "geometry": {
    "type": "Point",
    "coordinates": [
     -82.4869,
     7.5103,
     10
    ]
   },
   "properties": {
    "id": "us6000muin",
    "magnitude": 4.2,
    "time": "2024-04-28T02:07:28Z",
    "updated": "2024-07-02T22:12:48Z",
    "longitude": -82.4869,
    "latitude": 7.5103,
    "depth": 10,
    "place": "71 km SE of Burica, Panama",
    "status": "reviewed",
    "url": "https://earthquake.usgs.gov/earthquakes/eventpage/us6000muin"
   }
  },
  {
   "type": "Feature",
   "geometry": {
    "type": "Point",
    "coordinates": [
     -82.3909,
     7.6981,
     10
    ]
   },
   "properties": {
    "id": "us6000muue",
    "magnitude": 4.5,
    "time": "2024-04-29T09:00:03Z",
    "updated": "2024-07-15T03:58:58Z",
    "longitude": -82.3909,
    "latitude": 7.6981,
    "depth": 10,
    "place": "60 km SSW of Boca Chica, Panama",
    "status": "reviewed",
    "url": "https://earthquake.usgs.gov/earthquakes/eventpage/us6000muue"
   }
  },
  {
   "type": "Feature",
   "geometry": {
    "type": "Point",
    "coordinates": [
     -76.5066,
     6.8392,
     48.925
    ]
   },
   "properties": {
    "id": "us6000n00i",
    "magnitude": 4.3,
    "time": "2024-05-21T09:58:18Z",
    "updated": "2024-08-06T02:09:50Z",
    "longitude": -76.5066,
    "latitude": 6.8392,
    "depth": 48.925,
    "place": "31 km SW of Dabeiba, Colombia",
    "status": "reviewed",
    "url": "https://earthquake.usgs.gov/earthquakes/eventpage/us6000n00i"
   }
  },
  {
   "type": "Feature",
   "geometry": {
    "type": "Point",
    "coordinates": [
     -82.5111,
     6.2666,
     10
    ]
   },
   "properties": {
    "id": "us6000n0mu",
    "magnitude": 5.1,
    "time": "2024-05-24T05:13:49Z",
    "updated": "2024-08-06T02:10:13Z",
    "longitude": -82.5111,
    "latitude": 6.2666,
    "depth": 10,
    "place": "199 km SSE of Burica, Panama",
    "status": "reviewed",
    "url": "https://earthquake.usgs.gov/earthquakes/eventpage/us6000n0mu"
   }
  },
  {
   "type": "Feature",
   "geometry": {
    "type": "Point",
    "coordinates": [
     -82.9421,
     8.4841,
     8.724
    ]
   },
   "properties": {
    "id": "us6000n0zu",
    "magnitude": 4.8,
    "time": "2024-05-25T20:11:37Z",
    "updated": "2024-08-06T02:10:23Z",
    "longitude": -82.9421,
    "latitude": 8.4841,
    "depth": 8.724,
    "place": "12 km WNW of Progreso, Panama",
    "status": "reviewed",
    "url": "https://earthquake.usgs.gov/earthquakes/eventpage/us6000n0zu"
   }
  },
  {
   "type": "Feature",
   "geometry": {
    "type": "Point",
    "coordinates": [
     -82.9655,
     8.4976,
     10
    ]
   },
   "properties": {
    "id": "us6000n11l",
    "magnitude": 4.6,
    "time": "2024-05-26T04:37:10Z",
    "updated": "2024-08-06T02:10:15Z",
    "longitude": -82.9655,
    "latitude": 8.4976,
    "depth": 10,
    "place": "14 km WSW of Canoas, Costa Rica",
    "status": "reviewed",
    "url": "https://earthquake.usgs.gov/earthquakes/eventpage/us6000n11l"
   }
  },
  {
   "type": "Feature",
   "geometry": {
    "type": "Point",
    "coordinates": [
     -82.743,
     5.2718,
     10
    ]
   },
   "properties": {
    "id": "us7000mnxc",
    "magnitude": 4.3,
    "time": "2024-05-30T07:10:46Z",
    "updated": "2024-08-06T20:32:48Z",
    "longitude": -82.743,
    "latitude": 5.2718,
    "depth": 10,
    "place": "south of Panama",
    "status": "reviewed",
    "url": "https://earthquake.usgs.gov/earthquakes/eventpage/us7000mnxc"
   }
  },
  {
   "type": "Feature",
   "geometry": {
    "type": "Point",
    "coordinates": [
     -84.1168,
     9.5901,
     56.621
    ]
   },
   "properties": {
    "id": "us7000mpi9",
    "magnitude": 4.1,
    "time": "2024-06-01T20:32:52Z",
    "updated": "2024-08-06T20:32:49Z",
    "longitude": -84.1168,
    "latitude": 9.5901,
    "depth": 56.621,
    "place": "13 km SW of San Marcos, Costa Rica",
    "status": "reviewed",
    "url": "https://earthquake.usgs.gov/earthquakes/eventpage/us7000mpi9"
   }
  },
  {
   "type": "Feature",
   "geometry": {
    "type": "Point",
    "coordinates": [
     -82.3251,
     7.7136,
     9.366
    ]
   },
   "properties": {
    "id": "us7000mqxx",
    "magnitude": 4.6,
    "time": "2024-06-07T13:49:22Z",
    "updated": "2024-08-16T21:59:24Z",
    "longitude": -82.3251,
    "latitude": 7.7136,
    "depth": 9.366,
    "place": "57 km SSW of Boca Chica, Panama",
    "status": "reviewed",
    "url": "https://earthquake.usgs.gov/earthquakes/eventpage/us7000mqxx"
   }
  },
  {
   "type": "Feature",
   "geometry": {
    "type": "Point",
    "coordinates": [
     -82.342,
     7.5184,
     10
    ]
   },
   "properties": {
    "id": "us7000mu61",
    "magnitude": 4.6,
    "time": "2024-06-23T20:28:04Z",
    "updated": "2024-08-30T18:17:05Z",
    "longitude": -82.342,
    "latitude": 7.5184,
    "depth": 10,
    "place": "78 km S of Boca Chica, Panama",
    "status": "reviewed",
    "url": "https://earthquake.usgs.gov/earthquakes/eventpage/us7000mu61"
   }
  },
  {
   "type": "Feature",
   "geometry": {
    "type": "Point",
    "coordinates": [
     -77.0329,
     6.848,
     41.197
    ]
   },
   "properties": {
    "id": "us6000n84y",
    "magnitude": 4.6,
    "time": "2024-06-25T19:03:26Z",
    "updated": "2024-09-04T21:57:40Z",
    "longitude": -77.0329,
    "latitude": 6.848,
    "depth": 41.197,
    "place": "27 km WSW of Murindó, Colombia",
    "status": "reviewed",
    "url": "https://earthquake.usgs.gov/earthquakes/eventpage/us6000n84y"
   }
  },
  {
   "type": "Feature",
   "geometry": {
    "type": "Point",
    "coordinates": [
     -82.6481,
     5.9482,
     10
    ]
   },
   "properties": {
    "id": "us6000n91g",
    "magnitude": 4.8,
    "time": "2024-06-28T22:01:56Z",
    "updated": "2024-09-04T21:57:43Z",
    "longitude": -82.6481,
    "latitude": 5.9482,
    "depth": 10,
    "place": "231 km S of Burica, Panama",
    "status": "reviewed",
    "url": "https://earthquake.usgs.gov/earthquakes/eventpage/us6000n91g"
   }
  },
  {
   "type": "Feature",
   "geometry": {
    "type": "Point",
    "coordinates": [
     -82.676,
     8.4598,
     26.677
    ]
   },
   "properties": {
    "id": "us7000mxr8",
    "magnitude": 5.3,
    "time": "2024-07-08T09:54:53Z",
    "updated": "2025-07-06T07:18:09Z",
    "longitude": -82.676,
    "latitude": 8.4598,
    "depth": 26.677,
    "place": "2 km SSW of Sioguí Abajo, Panama",
    "status": "reviewed",
    "url": "https://earthquake.usgs.gov/earthquakes/eventpage/us7000mxr8"
   }
  },
  {
   "type": "Feature",
   "geometry": {
    "type": "Point",
    "coordinates": [
     -82.686,
     8.5352,
     7.272
    ]
   },
   "properties": {
    "id": "us7000mxrn",
    "magnitude": 4.3,
    "time": "2024-07-08T12:31:29Z",
    "updated": "2024-09-20T16:00:52Z",
    "longitude": -82.686,
    "latitude": 8.5352,
    "depth": 7.272,
    "place": "0 km SSW of Sioguí Arriba, Panama",
    "status": "reviewed",
    "url": "https://earthquake.usgs.gov/earthquakes/eventpage/us7000mxrn"
   }
  },
  {
   "type": "Feature",
   "geometry": {
    "type": "Point",
    "coordinates": [
     -85.9086,
     11.5502,
     190.558
    ]
   },
   "properties": {
    "id": "us7000myjw",
    "magnitude": 4.6,
    "time": "2024-07-11T12:04:09Z",
    "updated": "2024-09-20T16:00:54Z",
    "longitude": -85.9086,
    "latitude": 11.5502,
    "depth": 190.558,
    "place": "5 km NNW of Belén, Nicaragua",
    "status": "reviewed",
    "url": "https://earthquake.usgs.gov/earthquakes/eventpage/us7000myjw"
   }
  },
  {
   "type": "Feature",
   "geometry": {
    "type": "Point",
    "coordinates": [
     -82.7179,
     8.1564,
     10
    ]
   },
   "properties": {
    "id": "us7000mz45",
    "magnitude": 5.4,
    "time": "2024-07-13T21:34:00Z",
    "updated": "2024-10-08T18:22:48Z",
    "longitude": -82.7179,
    "latitude": 8.1564,
    "depth": 10,
    "place": "17 km ENE of Limones, Panama",
    "status": "reviewed",
    "url": "https://earthquake.usgs.gov/earthquakes/eventpage/us7000mz45"
   }
  },
  {
   "type": "Feature",
   "geometry": {
    "type": "Point",
    "coordinates": [
     -82.8119,
     8.2877,
     10
    ]
   },
   "properties": {
    "id": "us7000mz5u",
    "magnitude": 4.4,
    "time": "2024-07-14T05:53:05Z",
    "updated": "2024-09-20T16:00:56Z",
    "longitude": -82.8119,
    "latitude": 8.2877,
    "depth": 10,
    "place": "4 km S of Manaca Civil, Panama",
    "status": "reviewed",
    "url": "https://earthquake.usgs.gov/earthquakes/eventpage/us7000mz5u"
   }
  },
  {
   "type": "Feature",
   "geometry": {
    "type": "Point",
    "coordinates": [
     -82.8776,
     8.2214,
     22.913
    ]
   },
   "properties": {
    "id": "us7000mz83",
    "magnitude": 4.3,
    "time": "2024-07-14T16:48:59Z",
    "updated": "2024-09-20T16:00:56Z",
    "longitude": -82.8776,
    "latitude": 8.2214,
    "depth": 22.913,
    "place": "6 km SSW of Puerto Armuelles, Panama",
    "status": "reviewed",
    "url": "https://earthquake.usgs.gov/earthquakes/eventpage/us7000mz83"
   }
  },
  {
   "type": "Feature",
   "geometry": {
    "type": "Point",
    "coordinates": [
     -82.7987,
     8.2717,
     10
    ]
   },
   "properties": {
    "id": "us7000mzah",
    "magnitude": 4.4,
    "time": "2024-07-15T05:49:01Z",
    "updated": "2024-09-28T22:41:46Z",
    "longitude": -82.7987,
    "latitude": 8.2717,
    "depth": 10,
    "place": "6 km SSE of Manaca Civil, Panama",
    "status": "reviewed",
    "url": "https://earthquake.usgs.gov/earthquakes/eventpage/us7000mzah"
   }
  },
  {
   "type": "Feature",
   "geometry": {
    "type": "Point",
    "coordinates": [
     -82.86,
     8.2318,
     10
    ]
   },
   "properties": {
    "id": "us7000mzaj",
    "magnitude": 4.2,
    "time": "2024-07-15T05:59:36Z",
    "updated": "2024-09-28T22:41:46Z",
    "longitude": -82.86,
    "latitude": 8.2318,
    "depth": 10,
    "place": "5 km S of Puerto Armuelles, Panama",
    "status": "reviewed",
    "url": "https://earthquake.usgs.gov/earthquakes/eventpage/us7000mzaj"
   }
  },
  {
   "type": "Feature",
   "geometry": {
    "type": "Point",
    "coordinates": [
     -82.6026,
     5.0943,
     10
    ]
   },
   "properties": {
    "id": "us7000mzyv",
    "magnitude": 4.4,
    "time": "2024-07-18T08:52:44Z",
    "updated": "2024-09-28T22:42:17Z",
    "longitude": -82.6026,
    "latitude": 5.0943,
    "depth": 10,
    "place": "south of Panama",
    "status": "reviewed",
    "url": "https://earthquake.usgs.gov/earthquakes/eventpage/us7000mzyv"
   }
  },
  {
   "type": "Feature",
   "geometry": {
    "type": "Point",
    "coordinates": [
     -82.8075,
     8.22,
     7
    ]
   },
   "properties": {
    "id": "us6000nejp",
    "magnitude": 5.7,
    "time": "2024-07-22T19:19:35Z",
    "updated": "2025-03-21T15:10:29Z",
    "longitude": -82.8075,
    "latitude": 8.22,
    "depth": 7,
    "place": "8 km SE of Puerto Armuelles, Panama",
    "status": "reviewed",
    "url": "https://earthquake.usgs.gov/earthquakes/eventpage/us6000nejp"
   }
  },
  {
   "type": "Feature",
   "geometry": {
    "type": "Point",
    "coordinates": [
     -82.7985,
     8.3169,
     10
    ]
   },
   "properties": {
    "id": "us6000nejs",
    "magnitude": 4.4,
    "time": "2024-07-22T19:28:09Z",
    "updated": "2024-10-08T21:49:10Z",
    "longitude": -82.7985,
    "latitude": 8.3169,
    "depth": 10,
    "place": "2 km ESE of Manaca Civil, Panama",
    "status": "reviewed",
    "url": "https://earthquake.usgs.gov/earthquakes/eventpage/us6000nejs"
   }
  },
  {
   "type": "Feature",
   "geometry": {
    "type": "Point",
    "coordinates": [
     -82.672,
     8.183,
     10
    ]
   },
   "properties": {
    "id": "us6000ni7v",
    "magnitude": 4.5,
    "time": "2024-07-22T19:30:00Z",
    "updated": "2024-10-08T21:49:14Z",
    "longitude": -82.672,
    "latitude": 8.183,
    "depth": 10,
    "place": "22 km SE of Manaca Civil, Panama",
    "status": "reviewed",
    "url": "https://earthquake.usgs.gov/earthquakes/eventpage/us6000ni7v"
   }
  },
  {
   "type": "Feature",
   "geometry": {
    "type": "Point",
    "coordinates": [
     -82.7686,
     8.2256,
     7
    ]
   },
   "properties": {
    "id": "us6000nekb",
    "magnitude": 5.6,
    "time": "2024-07-22T20:17:54Z",
    "updated": "2024-10-08T21:49:10Z",
    "longitude": -82.7686,
    "latitude": 8.2256,
    "depth": 7,
    "place": "11 km ESE of Puerto Armuelles, Panama",
    "status": "reviewed",
    "url": "https://earthquake.usgs.gov/earthquakes/eventpage/us6000nekb"
   }
  },
  {
   "type": "Feature",
   "geometry": {
    "type": "Point",
    "coordinates": [
     -82.8309,
     8.1415,
     10
    ]
   },
   "properties": {
    "id": "us6000nekl",
    "magnitude": 4.9,
    "time": "2024-07-22T20:51:26Z",
    "updated": "2024-10-08T21:49:10Z",
    "longitude": -82.8309,
    "latitude": 8.1415,
    "depth": 10,
    "place": "5 km NE of Limones, Panama",
    "status": "reviewed",
    "url": "https://earthquake.usgs.gov/earthquakes/eventpage/us6000nekl"
   }
  },
  {
   "type": "Feature",
   "geometry": {
    "type": "Point",
    "coordinates": [
     -83.0467,
     8.0051,
     10
    ]
   },
   "properties": {
    "id": "us6000ngni",
    "magnitude": 4.6,
    "time": "2024-07-29T13:24:23Z",
    "updated": "2024-10-11T19:39:06Z",
    "longitude": -83.0467,
    "latitude": 8.0051,
    "depth": 10,
    "place": "19 km W of Burica, Panama",
    "status": "reviewed",
    "url": "https://earthquake.usgs.gov/earthquakes/eventpage/us6000ngni"
   }
  },
  {
   "type": "Feature",
   "geometry": {
    "type": "Point",
    "coordinates": [
     -82.7776,
     8.3764,
     10
    ]
   },
   "properties": {
    "id": "us6000nhsy",
    "magnitude": 4.2,
    "time": "2024-08-03T04:09:08Z",
    "updated": "2024-10-11T19:39:09Z",
    "longitude": -82.7776,
    "latitude": 8.3764,
    "depth": 10,
    "place": "3 km SSE of La Esperanza, Panama",
    "status": "reviewed",
    "url": "https://earthquake.usgs.gov/earthquakes/eventpage/us6000nhsy"
   }
  },
  {
   "type": "Feature",
   "geometry": {
    "type": "Point",
    "coordinates": [
     -84.1434,
     9.0007,
     28.729
    ]
   },
   "properties": {
    "id": "us6000npnk",
    "magnitude": 4.1,
    "time": "2024-08-12T01:58:45Z",
    "updated": "2024-10-26T15:48:00Z",
    "longitude": -84.1434,
    "latitude": 9.0007,
    "depth": 28.729,
    "place": "47 km S of Quepos, Costa Rica",
    "status": "reviewed",
    "url": "https://earthquake.usgs.gov/earthquakes/eventpage/us6000npnk"
   }
  },
  {
   "type": "Feature",
   "geometry": {
    "type": "Point",
    "coordinates": [
     -83.9366,
     10.0189,
     10
    ]
   },
   "properties": {
    "id": "us7000n75q",
    "magnitude": 3.2,
    "time": "2024-08-15T06:20:30Z",
    "updated": "2024-10-26T15:48:44Z",
    "longitude": -83.9366,
    "latitude": 10.0189,
    "depth": 10,
    "place": "10 km ENE of Ipís, Costa Rica",
    "status": "reviewed",
    "url": "https://earthquake.usgs.gov/earthquakes/eventpage/us7000n75q"
   }
  },
  {
   "type": "Feature",
   "geometry": {
    "type": "Point",
    "coordinates": [
     -82.2687,
     7.4653,
     10
    ]
   },
   "properties": {
    "id": "us7000n9fn",
    "magnitude": 5.8,
    "time": "2024-08-26T05:08:44Z",
    "updated": "2024-11-09T21:19:13Z",
    "longitude": -82.2687,
    "latitude": 7.4653,
    "depth": 10,
    "place": "83 km S of Boca Chica, Panama",
    "status": "reviewed",
    "url": "https://earthquake.usgs.gov/earthquakes/eventpage/us7000n9fn"
   }
  },
  {
   "type": "Feature",
   "geometry": {
    "type": "Point",
    "coordinates": [
     -82.5537,
     5.3837,
     10
    ]
   },
   "properties": {
    "id": "us6000nnrw",
    "magnitude": 5.1,
    "time": "2024-08-30T21:25:34Z",
    "updated": "2024-11-09T21:18:50Z",
    "longitude": -82.5537,
    "latitude": 5.3837,
    "depth": 10,
    "place": "288 km SW of Arenas, Panama",
    "status": "reviewed",
    "url": "https://earthquake.usgs.gov/earthquakes/eventpage/us6000nnrw"
   }
  },
  {
   "type": "Feature",
   "geometry": {
    "type": "Point",
    "coordinates": [
     -82.5712,
     5.2462,
     10
    ]
   },
   "properties": {
    "id": "us6000nppn",
    "magnitude": 4.8,
    "time": "2024-09-04T16:39:25Z",
    "updated": "2024-11-15T16:19:54Z",
    "longitude": -82.5712,
    "latitude": 5.2462,
    "depth": 10,
    "place": "south of Panama",
    "status": "reviewed",
    "url": "https://earthquake.usgs.gov/earthquakes/eventpage/us6000nppn"
   }
  },
  {
   "type": "Feature",
   "geometry": {
    "type": "Point",
    "coordinates": [
     -82.5432,
     5.2666,
     10
    ]
   },
   "properties": {
    "id": "us6000npq3",
    "magnitude": 4.8,
    "time": "2024-09-04T17:30:45Z",
    "updated": "2024-11-15T16:19:54Z",
    "longitude": -82.5432,
    "latitude": 5.2666,
    "depth": 10,
    "place": "298 km SW of Arenas, Panama",
    "status": "reviewed",
    "url": "https://earthquake.usgs.gov/earthquakes/eventpage/us6000npq3"
   }
  },
  {
   "type": "Feature",
   "geometry": {
    "type": "Point",
    "coordinates": [
     -85.9199,
     11.6268,
     163.008
    ]
   },
   "properties": {
    "id": "us7000ndd6",
    "magnitude": 4.3,
    "time": "2024-09-12T21:07:06Z",
    "updated": "2024-11-21T22:58:56Z",
    "longitude": -85.9199,
    "latitude": 11.6268,
    "depth": 163.008,
    "place": "14 km NNW of Belén, Nicaragua",
    "status": "reviewed",
    "url": "https://earthquake.usgs.gov/earthquakes/eventpage/us7000ndd6"
   }
  },
  {
   "type": "Feature",
   "geometry": {
    "type": "Point",
    "coordinates": [
     -82.659,
     5.1719,
     10
    ]
   },
   "properties": {
    "id": "us6000nsuw",
    "magnitude": 5,
    "time": "2024-09-18T07:52:28Z",
    "updated": "2024-11-23T23:25:51Z",
    "longitude": -82.659,
    "latitude": 5.1719,
    "depth": 10,
    "place": "south of Panama",
    "status": "reviewed",
    "url": "https://earthquake.usgs.gov/earthquakes/eventpage/us6000nsuw"
   }
  },
  {
   "type": "Feature",
   "geometry": {
    "type": "Point",
    "coordinates": [
     -82.5629,
     5.7512,
     10
    ]
   },
   "properties": {
    "id": "us6000nxsq",
    "magnitude": 4.5,
    "time": "2024-10-10T08:02:58Z",
    "updated": "2024-12-23T15:46:32Z",
    "longitude": -82.5629,
    "latitude": 5.7512,
    "depth": 10,
    "place": "254 km S of Burica, Panama",
    "status": "reviewed",
    "url": "https://earthquake.usgs.gov/earthquakes/eventpage/us6000nxsq"
   }
  },
  {
   "type": "Feature",
   "geometry": {
    "type": "Point",
    "coordinates": [
     -84.3375,
     9.3926,
     11.644
    ]
   },
   "properties": {
    "id": "us6000ny8a",
    "magnitude": 4.3,
    "time": "2024-10-12T02:24:43Z",
    "updated": "2024-12-23T15:47:01Z",
    "longitude": -84.3375,
    "latitude": 9.3926,
    "depth": 11.644,
    "place": "14 km S of Parrita, Costa Rica",
    "status": "reviewed",
    "url": "https://earthquake.usgs.gov/earthquakes/eventpage/us6000ny8a"
   }
  },
  {
   "type": "Feature",
   "geometry": {
    "type": "Point",
    "coordinates": [
     -85.9454,
     10.5949,
     64.679
    ]
   },
   "properties": {
    "id": "us6000nyb6",
    "magnitude": 4.9,
    "time": "2024-10-12T18:17:51Z",
    "updated": "2024-12-23T15:47:10Z",
    "longitude": -85.9454,
    "latitude": 10.5949,
    "depth": 64.679,
    "place": "33 km WNW of Sardinal, Costa Rica",
    "status": "reviewed",
    "url": "https://earthquake.usgs.gov/earthquakes/eventpage/us6000nyb6"
   }
  },
  {
   "type": "Feature",
   "geometry": {
    "type": "Point",
    "coordinates": [
     -85.0775,
     10.5508,
     65.437
    ]
   },
   "properties": {
    "id": "us6000nz32",
    "magnitude": 4.3,
    "time": "2024-10-16T14:29:36Z",
    "updated": "2024-12-26T23:03:42Z",
    "longitude": -85.0775,
    "latitude": 10.5508,
    "depth": 65.437,
    "place": "13 km N of Cañas, Costa Rica",
    "status": "reviewed",
    "url": "https://earthquake.usgs.gov/earthquakes/eventpage/us6000nz32"
   }
  },
  {
   "type": "Feature",
   "geometry": {
    "type": "Point",
    "coordinates": [
     -85.9504,
     10.2375,
     31.131
    ]
   },
   "properties": {
    "id": "us7000nqel",
    "magnitude": 4.3,
    "time": "2024-10-18T05:09:15Z",
    "updated": "2024-12-26T23:03:51Z",
    "longitude": -85.9504,
    "latitude": 10.2375,
    "depth": 31.131,
    "place": "13 km WSW of Tamarindo, Costa Rica",
    "status": "reviewed",
    "url": "https://earthquake.usgs.gov/earthquakes/eventpage/us7000nqel"
   }
  },
  {
   "type": "Feature",
   "geometry": {
    "type": "Point",
    "coordinates": [
     -82.6346,
     5.4996,
     10
    ]
   },
   "properties": {
    "id": "us6000nzql",
    "magnitude": 4.6,
    "time": "2024-10-19T12:01:57Z",
    "updated": "2024-12-26T23:04:06Z",
    "longitude": -82.6346,
    "latitude": 5.4996,
    "depth": 10,
    "place": "281 km S of Burica, Panama",
    "status": "reviewed",
    "url": "https://earthquake.usgs.gov/earthquakes/eventpage/us6000nzql"
   }
  },
  {
   "type": "Feature",
   "geometry": {
    "type": "Point",
    "coordinates": [
     -78.3798,
     5.4511,
     10
    ]
   },
   "properties": {
    "id": "us7000nmzv",
    "magnitude": 4.6,
    "time": "2024-10-24T20:31:59Z",
    "updated": "2025-01-04T23:07:59Z",
    "longitude": -78.3798,
    "latitude": 5.4511,
    "depth": 10,
    "place": "125 km WNW of Pizarro, Colombia",
    "status": "reviewed",
    "url": "https://earthquake.usgs.gov/earthquakes/eventpage/us7000nmzv"
   }
  },
  {
   "type": "Feature",
   "geometry": {
    "type": "Point",
    "coordinates": [
     -82.3132,
     7.5445,
     10
    ]
   },
   "properties": {
    "id": "us7000nn8v",
    "magnitude": 4.6,
    "time": "2024-10-25T21:55:33Z",
    "updated": "2025-01-04T23:08:12Z",
    "longitude": -82.3132,
    "latitude": 7.5445,
    "depth": 10,
    "place": "75 km S of Boca Chica, Panama",
    "status": "reviewed",
    "url": "https://earthquake.usgs.gov/earthquakes/eventpage/us7000nn8v"
   }
  },
  {
   "type": "Feature",
   "geometry": {
    "type": "Point",
    "coordinates": [
     -84.7881,
     7.6611,
     10
    ]
   },
   "properties": {
    "id": "us7000nnia",
    "magnitude": 4.4,
    "time": "2024-10-27T18:44:57Z",
    "updated": "2025-01-04T23:08:30Z",
    "longitude": -84.7881,
    "latitude": 7.6611,
    "depth": 10,
    "place": "200 km SW of Puerto Cortés, Costa Rica",
    "status": "reviewed",
    "url": "https://earthquake.usgs.gov/earthquakes/eventpage/us7000nnia"
   }
  },
  {
   "type": "Feature",
   "geometry": {
    "type": "Point",
    "coordinates": [
     -76.8664,
     7.0174,
     10
    ]
   },
   "properties": {
    "id": "us7000nnla",
    "magnitude": 4.6,
    "time": "2024-10-28T07:08:37Z",
    "updated": "2025-01-16T18:44:11Z",
    "longitude": -76.8664,
    "latitude": 7.0174,
    "depth": 10,
    "place": "6 km NW of Murindó, Colombia",
    "status": "reviewed",
    "url": "https://earthquake.usgs.gov/earthquakes/eventpage/us7000nnla"
   }
  },
  {
   "type": "Feature",
   "geometry": {
    "type": "Point",
    "coordinates": [
     -77.462,
     5.3197,
     31.25
    ]
   },
   "properties": {
    "id": "us7000npzi",
    "magnitude": 5,
    "time": "2024-11-05T03:14:06Z",
    "updated": "2025-01-24T19:51:14Z",
    "longitude": -77.462,
    "latitude": 5.3197,
    "depth": 31.25,
    "place": "41 km NNW of Pizarro, Colombia",
    "status": "reviewed",
    "url": "https://earthquake.usgs.gov/earthquakes/eventpage/us7000npzi"
   }
  },
  {
   "type": "Feature",
   "geometry": {
    "type": "Point",
    "coordinates": [
     -82.3993,
     7.4901,
     10
    ]
   },
   "properties": {
    "id": "us7000nqv1",
    "magnitude": 5.6,
    "time": "2024-11-09T10:03:40Z",
    "updated": "2025-01-24T19:51:27Z",
    "longitude": -82.3993,
    "latitude": 7.4901,
    "depth": 10,
    "place": "79 km SE of Burica, Panama",
    "status": "reviewed",
    "url": "https://earthquake.usgs.gov/earthquakes/eventpage/us7000nqv1"
   }
  },
  {
   "type": "Feature",
   "geometry": {
    "type": "Point",
    "coordinates": [
     -82.4935,
     7.5987,
     10
    ]
   },
   "properties": {
    "id": "us7000nqvb",
    "magnitude": 4.5,
    "time": "2024-11-09T11:04:02Z",
    "updated": "2025-01-24T19:51:27Z",
    "longitude": -82.4935,
    "latitude": 7.5987,
    "depth": 10,
    "place": "63 km SE of Burica, Panama",
    "status": "reviewed",
    "url": "https://earthquake.usgs.gov/earthquakes/eventpage/us7000nqvb"
   }
  },
  {
   "type": "Feature",
   "geometry": {
    "type": "Point",
    "coordinates": [
     -82.3895,
     7.5218,
     10
    ]
   },
   "properties": {
    "id": "us7000nqwx",
    "magnitude": 5.8,
    "time": "2024-11-09T19:30:18Z",
    "updated": "2025-01-24T19:51:28Z",
    "longitude": -82.3895,
    "latitude": 7.5218,
    "depth": 10,
    "place": "77 km SE of Burica, Panama",
    "status": "reviewed",
    "url": "https://earthquake.usgs.gov/earthquakes/eventpage/us7000nqwx"
   }
  },
  {
   "type": "Feature",
   "geometry": {
    "type": "Point",
    "coordinates": [
     -82.3689,
     6.6353,
     10
    ]
   },
   "properties": {
    "id": "us7000nrwt",
    "magnitude": 4.9,
    "time": "2024-11-15T03:46:47Z",
    "updated": "2025-01-26T16:29:57Z",
    "longitude": -82.3689,
    "latitude": 6.6353,
    "depth": 10,
    "place": "164 km SSE of Burica, Panama",
    "status": "reviewed",
    "url": "https://earthquake.usgs.gov/earthquakes/eventpage/us7000nrwt"
   }
  },
  {
   "type": "Feature",
   "geometry": {
    "type": "Point",
    "coordinates": [
     -82.8917,
     8.0131,
     10
    ]
   },
   "properties": {
    "id": "us6000p6p4",
    "magnitude": 4.8,
    "time": "2024-11-21T02:23:43Z",
    "updated": "2025-01-30T17:00:31Z",
    "longitude": -82.8917,
    "latitude": 8.0131,
    "depth": 10,
    "place": "3 km SW of Burica, Panama",
    "status": "reviewed",
    "url": "https://earthquake.usgs.gov/earthquakes/eventpage/us6000p6p4"
   }
  },
  {
   "type": "Feature",
   "geometry": {
    "type": "Point",
    "coordinates": [
     -83.3941,
     8.2092,
     10
    ]
   },
   "properties": {
    "id": "us7000nyii",
    "magnitude": 4.4,
    "time": "2024-12-02T15:47:30Z",
    "updated": "2025-02-15T18:31:14Z",
    "longitude": -83.3941,
    "latitude": 8.2092,
    "depth": 10,
    "place": "53 km SW of Golfito, Costa Rica",
    "status": "reviewed",
    "url": "https://earthquake.usgs.gov/earthquakes/eventpage/us7000nyii"
   }
  },
  {
   "type": "Feature",
   "geometry": {
    "type": "Point",
    "coordinates": [
     -82.9302,
     8.1818,
     35
    ]
   },
   "properties": {
    "id": "us6000ph6u",
    "magnitude": 4.5,
    "time": "2024-12-14T18:19:50Z",
    "updated": "2025-02-18T20:02:59Z",
    "longitude": -82.9302,
    "latitude": 8.1818,
    "depth": 35,
    "place": "11 km NW of Limones, Panama",
    "status": "reviewed",
    "url": "https://earthquake.usgs.gov/earthquakes/eventpage/us6000ph6u"
   }
  },
  {
   "type": "Feature",
   "geometry": {
    "type": "Point",
    "coordinates": [
     -82.5032,
     7.3463,
     10
    ]
   },
   "properties": {
    "id": "us7000nznx",
    "magnitude": 4.3,
    "time": "2024-12-17T23:23:32Z",
    "updated": "2025-02-27T17:30:52Z",
    "longitude": -82.5032,
    "latitude": 7.3463,
    "depth": 10,
    "place": "86 km SSE of Burica, Panama",
    "status": "reviewed",
    "url": "https://earthquake.usgs.gov/earthquakes/eventpage/us7000nznx"
   }
  },
  {
   "type": "Feature",
   "geometry": {
    "type": "Point",
    "coordinates": [
     -85.7826,
     11.1725,
     90.305
    ]
   },
   "properties": {
    "id": "us6000pfl4",
    "magnitude": 4.5,
    "time": "2024-12-25T17:47:53Z",
    "updated": "2025-03-08T22:39:10Z",
    "longitude": -85.7826,
    "latitude": 11.1725,
    "depth": 90.305,
    "place": "13 km SE of San Juan del Sur, Nicaragua",
    "status": "reviewed",
    "url": "https://earthquake.usgs.gov/earthquakes/eventpage/us6000pfl4"
   }
  },
  {
   "type": "Feature",
   "geometry": {
    "type": "Point",
    "coordinates": [
     -85.9299,
     11.3207,
     100.943
    ]
   },
   "properties": {
    "id": "us6000pgcx",
    "magnitude": 4,
    "time": "2024-12-29T23:00:10Z",
    "updated": "2025-03-08T22:39:12Z",
    "longitude": -85.9299,
    "latitude": 11.3207,
    "depth": 100.943,
    "place": "9 km NW of San Juan del Sur, Nicaragua",
    "status": "reviewed",
    "url": "https://earthquake.usgs.gov/earthquakes/eventpage/us6000pgcx"
   }
  }
 ]
}