{"type": "FeatureCollection", "metadata": {"generated": 1791396921000, "url": "https://earthquake.usgs.gov/fdsnws/event/1/query?format=geojson&starttime=2024-01-01&endtime=2025-01-01&minlatitude=5&maxlatitude=12&minlongitude=-86&maxlongitude=-76&minmagnitude=3&orderby=time-asc", "title": "USGS Earthquakes", "status": 200, "api": "2.7.0", "count": 82}, "features": [{"type": "Feature", "properties": {"mag": 4.6, "place": "south of Panama", "time": 1704589328686, "updated": 1710020391040, "tz": null, "url": "https://earthquake.usgs.gov/earthquakes/eventpage/us6000m2a6", "detail": "https://earthquake.usgs.gov/fdsnws/event/1/query?eventid=us6000m2a6&format=geojson", "felt": 1, "cdi": 3.1, "mmi": null, "alert": null, "status": "reviewed", "tsunami": 0, "sig": 326, "net": "us", "code": "6000m2a6", "ids": ",us6000m2a6,", "sources": ",us,", "types": ",dyfi,origin,phase-data,", "nst": 44, "dmin": 3.694, "rms": 1, "gap": 147, "magType": "mb", "type": "earthquake", "title": "M 4.6 - south of Panama"}, "geometry": {"type": "Point", "coordinates": [-82.4658, 5.0822, 10]}, "id": "us6000m2a6"}, {"type": "Feature", "properties": {"mag": 4.3, "place": "19 km W of Sardinal, Costa Rica", "time": 1705023845766, "updated": 1711891327933, "tz": null, "url": "https://earthquake.usgs.gov/earthquakes/eventpage/us6000m385", "detail": "https://earthquake.usgs.gov/fdsnws/event/1/query?eventid=us6000m385&format=geojson", "felt": 43, "cdi": 3.8, "mmi": null, "alert": null, "status": "reviewed", "tsunami": 0, "sig": 301, "net": "us", "code": "6000m385", "ids": ",us6000m385,", "sources": ",us,", "types": ",dyfi,origin,phase-data,", "nst": 49, "dmin": 0.59, "rms": 0.64, "gap": 142, "magType": "mb", "type": "earthquake", "title": "M 4.3 - 19 km W of Sardinal, Costa Rica"}, "geometry": {"type": "Point", "coordinates": [-85.8273, 10.5395, 51.564]}, "id": "us6000m385"}, {"type": "Feature", "properties": {"mag": 4.4, "place": "47 km SE of Pedasí, Panama", "time": 1705401322056, "updated": 1713884969274, "tz": null, "url": "https://earthquake.usgs.gov/earthquakes/eventpage/us6000m3yi", "detail": "https://earthquake.usgs.gov/fdsnws/event/1/query?eventid=us6000m3yi&format=geojson", "felt": 4, "cdi": 3.8, "mmi": null, "alert": null, "status": "reviewed", "tsunami": 0, "sig": 299, "net": "us", "code": "6000m3yi", "ids": ",us6000m3yi,", "sources": ",us,", "types": ",dyfi,origin,phase-data,", "nst": 96, "dmin": 3.296, "rms": 0.49, "gap": 128, "magType": "mb", "type": "earthquake", "title": "M 4.4 - 47 km SE of Pedasí, Panama"}, "geometry": {"type": "Point", "coordinates": [-79.7804, 7.1797, 10]}, "id": "us6000m3yi"}, {"type": "Feature", "properties": {"mag": 4.1, "place": "5 km S of Quepos, Costa Rica", "time": 1705761534429, "updated": 1711733875040, "tz": null, "url": "https://earthquake.usgs.gov/earthquakes/eventpage/us6000m501", "detail": "https://earthquake.usgs.gov/fdsnws/event/1/query?eventid=us6000m501&format=geojson", "felt": 13, "cdi": 2.8, "mmi": null, "alert": null, "status": "reviewed", "tsunami": 0, "sig": 262, "net": "us", "code": "6000m501", "ids": ",us6000m501,", "sources": ",us,", "types": ",dyfi,origin,phase-data,", "nst": 14, "dmin": 0.617, "rms": 0.74, "gap": 198, "magType": "mb", "type": "earthquake", "title": "M 4.1 - 5 km S of Quepos, Costa Rica"}, "geometry": {"type": "Point", "coordinates": [-84.1682, 9.3835, 47.467]}, "id": "us6000m501"}, {"type": "Feature", "properties": {"mag": 4.4, "place": "18 km N of San Isidro, Costa Rica", "time": 1706226640773, "updated": 1711838019040, "tz": null, "url": "https://earthquake.usgs.gov/earthquakes/eventpage/us7000ltuw", "detail": "https://earthquake.usgs.gov/fdsnws/event/1/query?eventid=us7000ltuw&format=geojson", "felt": 13, "cdi": 3.4, "mmi": null, "alert": null, "status": "reviewed", "tsunami": 0, "sig": 302, "net": "us", "code": "7000ltuw", "ids": ",us7000ltuw,", "sources": ",us,", "types": ",dyfi,origin,phase-data,", "nst": 33, "dmin": 0.607, "rms": 0.71, "gap": 144, "magType": "mb", "type": "earthquake", "title": "M 4.4 - 18 km N of San Isidro, Costa Rica"}, "geometry": {"type": "Point", "coordinates": [-83.7184, 9.5312, 55.183]}, "id": "us7000ltuw"}, {"type": "Feature", "properties": {"mag": 4.4, "place": "53 km W of Nuquí, Colombia", "time": 1706422238878, "updated": 1711838124040, "tz": null, "url": "https://earthquake.usgs.gov/earthquakes/eventpage/us7000lwas", "detail": "https://earthquake.usgs.gov/fdsnws/event/1/query?eventid=us7000lwas&format=geojson", "felt": null, "cdi": null, "mmi": null, "alert": null, "status": "reviewed", "tsunami": 0, "sig": 298, "net": "us", "code": "7000lwas", "ids": ",us7000lwas,", "sources": ",us,", "types": ",origin,phase-data,", "nst": 42, "dmin": 2.249, "rms": 0.48, "gap": 86, "magType": "mb", "type": "earthquake", "title": "M 4.4 - 53 km W of Nuquí, Colombia"}, "geometry": {"type": "Point", "coordinates": [-77.752, 5.7787, 17.402]}, "id": "us7000lwas"}, {"type": "Feature", "properties": {"mag": 4.5, "place": "19 km W of Bahía Solano, Colombia", "time": 1706429875788, "updated": 1711838082040, "tz": null, "url": "https://earthquake.usgs.gov/earthquakes/eventpage/us7000luhv", "detail": "https://earthquake.usgs.gov/fdsnws/event/1/query?eventid=us7000luhv&format=geojson", "felt": 1, "cdi": 2.2, "mmi": null, "alert": null, "status": "reviewed", "tsunami": 0, "sig": 312, "net": "us", "code": "7000luhv", "ids": ",us7000luhv,", "sources": ",us,", "types": ",dyfi,origin,phase-data,", "nst": 135, "dmin": 2.04, "rms": 0.55, "gap": 53, "magType": "mb", "type": "earthquake", "title": "M 4.5 - 19 km W of Bahía Solano, Colombia"}, "geometry": {"type": "Point", "coordinates": [-77.5807, 6.2056, 21.804]}, "id": "us7000luhv"}, {"type": "Feature", "properties": {"mag": 4.8, "place": "11 km S of La Tronosa, Panama", "time": 1707226652568, "updated": 1713641606040, "tz": null, "url": "https://earthquake.usgs.gov/earthquakes/eventpage/us7000lxb1", "detail": "https://earthquake.usgs.gov/fdsnws/event/1/query?eventid=us7000lxb1&format=geojson", "felt": 4, "cdi": 3.1, "mmi": null, "alert": null, "status": "reviewed", "tsunami": 0, "sig": 356, "net": "us", "code": "7000lxb1", "ids": ",us7000lxb1,", "sources": ",us,", "types": ",dyfi,origin,phase-data,", "nst": 62, "dmin": 2.536, "rms": 0.76, "gap": 64, "magType": "mb", "type": "earthquake", "title": "M 4.8 - 11 km S of La Tronosa, Panama"}, "geometry": {"type": "Point", "coordinates": [-80.5906, 7.328, 16.804]}, "id": "us7000lxb1"}, {"type": "Feature", "properties": {"mag": 4.4, "place": "8 km W of Puerto Armuelles, Panama", "time": 1707550100053, "updated": 1713641704040, "tz": null, "url": "https://earthquake.usgs.gov/earthquakes/eventpage/us7000ly8f", "detail": "https://earthquake.usgs.gov/fdsnws/event/1/query?eventid=us7000ly8f&format=geojson", "felt": 3, "cdi": 2.7, "mmi": null, "alert": null, "status": "reviewed", "tsunami": 0, "sig": 299, "net": "us", "code": "7000ly8f", "ids": ",us7000ly8f,", "sources": ",us,", "types": ",dyfi,origin,phase-data,", "nst": 39, "dmin": 0.581, "rms": 0.78, "gap": 147, "magType": "mb", "type": "earthquake", "title": "M 4.4 - 8 km W of Puerto Armuelles, Panama"}, "geometry": {"type": "Point", "coordinates": [-82.9428, 8.2673, 10]}, "id": "us7000ly8f"}, {"type": "Feature", "properties": {"mag": 4.7, "place": "26 km WNW of Murindó, Colombia", "time": 1708021632430, "updated": 1713969723040, "tz": null, "url": "https://earthquake.usgs.gov/earthquakes/eventpage/us7000lzgv", "detail": "https://earthquake.usgs.gov/fdsnws/event/1/query?eventid=us7000lzgv&format=geojson", "felt": 1, "cdi": 1, "mmi": null, "alert": null, "status": "reviewed", "tsunami": 0, "sig": 340, "net": "us", "code": "7000lzgv", "ids": ",us7000lzgv,", "sources": ",us,", "types": ",dyfi,origin,phase-data,", "nst": 52, "dmin": 1.734, "rms": 0.62, "gap": 91, "magType": "mb", "type": "earthquake", "title": "M 4.7 - 26 km WNW of Murindó, Colombia"}, "geometry": {"type": "Point", "coordinates": [-77.0477, 7.0504, 38.654]}, "id": "us7000lzgv"}, {"type": "Feature", "properties": {"mag": 4.2, "place": "3 km NW of San Isidro, Costa Rica", "time": 1708136966926, "updated": 1713969724040, "tz": null, "url": "https://earthquake.usgs.gov/earthquakes/eventpage/us7000lzsx", "detail": "https://earthquake.usgs.gov/fdsnws/event/1/query?eventid=us7000lzsx&format=geojson", "felt": 2, "cdi": 3.4, "mmi": null, "alert": null, "status": "reviewed", "tsunami": 0, "sig": 272, "net": "us", "code": "7000lzsx", "ids": ",us7000lzsx,", "sources": ",us,", "types": ",dyfi,origin,phase-data,", "nst": 20, "dmin": 0.488, "rms": 0.54, "gap": 123, "magType": "mb", "type": "earthquake", "title": "M 4.2 - 3 km NW of San Isidro, Costa Rica"}, "geometry": {"type": "Point", "coordinates": [-83.7243, 9.3855, 12.424]}, "id": "us7000lzsx"}, {"type": "Feature", "properties": {"mag": 4.4, "place": "28 km WSW of Necoclí, Colombia", "time": 1708278143689, "updated": 1713969725040, "tz": null, "url": "https://earthquake.usgs.gov/earthquakes/eventpage/us7000m01m", "detail": "https://earthquake.usgs.gov/fdsnws/event/1/query?eventid=us7000m01m&format=geojson", "felt": null, "cdi": null, "mmi": null, "alert": null, "status": "reviewed", "tsunami": 0, "sig": 298, "net": "us", "code": "7000m01m", "ids": ",us7000m01m,", "sources": ",us,", "types": ",origin,phase-data,", "nst": 45, "dmin": 0.825, "rms": 0.64, "gap": 110, "magType": "mb", "type": "earthquake", "title": "M 4.4 - 28 km WSW of Necoclí, Colombia"}, "geometry": {"type": "Point", "coordinates": [-77.0365, 8.3606, 50.379]}, "id": "us7000m01m"}, {"type": "Feature", "properties": {"mag": 4.5, "place": "7 km WSW of Uramita, Colombia", "time": 1708847469149, "updated": 1714665014040, "tz": null, "url": "https://earthquake.usgs.gov/earthquakes/eventpage/us7000m1gm", "detail": "https://earthquake.usgs.gov/fdsnws/event/1/query?eventid=us7000m1gm&format=geojson", "felt": null, "cdi": null, "mmi": null, "alert": null, "status": "reviewed", "tsunami": 0, "sig": 312, "net": "us", "code": "7000m1gm", "ids": ",us7000m1gm,", "sources": ",us,", "types": ",origin,phase-data,", "nst": 53, "dmin": 0.971, "rms": 0.47, "gap": 75, "magType": "mb", "type": "earthquake", "title": "M 4.5 - 7 km WSW of Uramita, Colombia"}, "geometry": {"type": "Point", "coordinates": [-76.2307, 6.8709, 49.262]}, "id": "us7000m1gm"}, {"type": "Feature", "properties": {"mag": 4.5, "place": "29 km SSE of Bellavista, Colombia", "time": 1709073712312, "updated": 1715376354040, "tz": null, "url": "https://earthquake.usgs.gov/earthquakes/eventpage/us6000mfie", "detail": "https://earthquake.usgs.gov/fdsnws/event/1/query?eventid=us6000mfie&format=geojson", "felt": 5, "cdi": 4.3, "mmi": null, "alert": null, "status": "reviewed", "tsunami": 0, "sig": 314, "net": "us", "code": "6000mfie", "ids": ",us6000mfie,", "sources": ",us,", "types": ",dyfi,origin,phase-data,", "nst": 20, "dmin": 1.217, "rms": 0.78, "gap": 124, "magType": "mb", "type": "earthquake", "title": "M 4.5 - 29 km SSE of Bellavista, Colombia"}, "geometry": {"type": "Point", "coordinates": [-76.7456, 6.3284, 51.878]}, "id": "us6000mfie"}, {"type": "Feature", "properties": {"mag": 4.4, "place": "15 km WSW of Frontino, Colombia", "time": 1709591156002, "updated": 1715794506040, "tz": null, "url": "https://earthquake.usgs.gov/earthquakes/eventpage/us7000m46g", "detail": "https://earthquake.usgs.gov/fdsnws/event/1/query?eventid=us7000m46g&format=geojson", "felt": null, "cdi": null, "mmi": null, "alert": null, "status": "reviewed", "tsunami": 0, "sig": 298, "net": "us", "code": "7000m46g", "ids": ",us7000m46g,", "sources": ",us,", "types": ",origin,phase-data,", "nst": 19, "dmin": 0.916, "rms": 0.49, "gap": 142, "magType": "mb", "type": "earthquake", "title": "M 4.4 - 15 km WSW of Frontino, Colombia"}, "geometry": {"type": "Point", "coordinates": [-76.2688, 6.7417, 37.524]}, "id": "us7000m46g"}, {"type": "Feature", "properties": {"mag": 4.5, "place": "89 km SW of Puerto Cortés, Costa Rica", "time": 1710756534535, "updated": 1716819558040, "tz": null, "url": "https://earthquake.usgs.gov/earthquakes/eventpage/us6000mjk7", "detail": "https://earthquake.usgs.gov/fdsnws/event/1/query?eventid=us6000mjk7&format=geojson", "felt": null, "cdi": null, "mmi": null, "alert": null, "status": "reviewed", "tsunami": 0, "sig": 312, "net": "us", "code": "6000mjk7", "ids": ",us6000mjk7,", "sources": ",us,", "types": ",origin,phase-data,", "nst": 45, "dmin": 0.83, "rms": 0.92, "gap": 137, "magType": "mb", "type": "earthquake", "title": "M 4.5 - 89 km SW of Puerto Cortés, Costa Rica"}, "geometry": {"type": "Point", "coordinates": [-84.1576, 8.4554, 10]}, "id": "us6000mjk7"}, {"type": "Feature", "properties": {"mag": 4.4, "place": "20 km WSW of Pie de Pató, Colombia", "time": 1711687121170, "updated": 1717278948040, "tz": null, "url": "https://earthquake.usgs.gov/earthquakes/eventpage/us7000m8pn", "detail": "https://earthquake.usgs.gov/fdsnws/event/1/query?eventid=us7000m8pn&format=geojson", "felt": null, "cdi": null, "mmi": null, "alert": null, "status": "reviewed", "tsunami": 0, "sig": 298, "net": "us", "code": "7000m8pn", "ids": ",us7000m8pn,", "sources": ",us,", "types": ",origin,phase-data,", "nst": 27, "dmin": 1.772, "rms": 0.47, "gap": 136, "magType": "mb", "type": "earthquake", "title": "M 4.4 - 20 km WSW of Pie de Pató, Colombia"}, "geometry": {"type": "Point", "coordinates": [-77.1372, 5.4232, 41.556]}, "id": "us7000m8pn"}, {"type": "Feature", "properties": {"mag": 4.3, "place": "12 km W of Guápiles, Costa Rica", "time": 1712424340808, "updated": 1718229116040, "tz": null, "url": "https://earthquake.usgs.gov/earthquakes/eventpage/us7000mam6", "detail": "https://earthquake.usgs.gov/fdsnws/event/1/query?eventid=us7000mam6&format=geojson", "felt": 5, "cdi": 6.1, "mmi": null, "alert": null, "status": "reviewed", "tsunami": 0, "sig": 288, "net": "us", "code": "7000mam6", "ids": ",us7000mam6,", "sources": ",us,", "types": ",dyfi,origin,phase-data,", "nst": 16, "dmin": 0.291, "rms": 0.52, "gap": 72, "magType": "ml", "type": "earthquake", "title": "M 4.3 - 12 km W of Guápiles, Costa Rica"}, "geometry": {"type": "Point", "coordinates": [-83.8935, 10.2007, 10]}, "id": "us7000mam6"}, {"type": "Feature", "properties": {"mag": 4.3, "place": "232 km SSW of Río Grande, Panama", "time": 1712497527540, "updated": 1718229116040, "tz": null, "url": "https://earthquake.usgs.gov/earthquakes/eventpage/us7000mam4", "detail": "https://earthquake.usgs.gov/fdsnws/event/1/query?eventid=us7000mam4&format=geojson", "felt": null, "cdi": null, "mmi": null, "alert": null, "status": "reviewed", "tsunami": 0, "sig": 284, "net": "us", "code": "7000mam4", "ids": ",us7000mam4,", "sources": ",us,", "types": ",origin,phase-data,", "nst": 22, "dmin": 2.659, "rms": 0.53, "gap": 158, "magType": "mb", "type": "earthquake", "title": "M 4.3 - 232 km SSW of Río Grande, Panama"}, "geometry": {"type": "Point", "coordinates": [-82.3932, 5.8994, 10]}, "id": "us7000mam4"}, {"type": "Feature", "properties": {"mag": 4.3, "place": "18 km NW of Cárdenas, Nicaragua", "time": 1712525321657, "updated": 1718229116040, "tz": null, "url": "https://earthquake.usgs.gov/earthquakes/eventpage/us7000manz", "detail": "https://earthquake.usgs.gov/fdsnws/event/1/query?eventid=us7000manz&format=geojson", "felt": null, "cdi": null, "mmi": null, "alert": null, "status": "reviewed", "tsunami": 0, "sig": 284, "net": "us", "code": "7000manz", "ids": ",us7000manz,", "sources": ",us,", "types": ",origin,phase-data,", "nst": 46, "dmin": 0.536, "rms": 0.81, "gap": 97, "magType": "mb", "type": "earthquake", "title": "M 4.3 - 18 km NW of Cárdenas, Nicaragua"}, "geometry": {"type": "Point", "coordinates": [-85.61, 11.327, 193.447]}, "id": "us7000manz"}, {"type": "Feature", "properties": {"mag": 5.5, "place": "20 km ESE of Cárdenas, Nicaragua", "time": 1713388914614, "updated": 1719349376040, "tz": null, "url": "https://earthquake.usgs.gov/earthquakes/eventpage/us7000mcrs", "detail": "https://earthquake.usgs.gov/fdsnws/event/1/query?eventid=us7000mcrs&format=geojson", "felt": 81, "cdi": 4.2, "mmi": 3.808, "alert": "green", "status": "reviewed", "tsunami": 0, "sig": 499, "net": "us", "code": "7000mcrs", "ids": ",us7000mcrs,usauto7000mcrs,pt24108001,", "sources": ",us,usauto,pt,", "types": ",dyfi,internal-moment-tensor,internal-origin,losspager,moment-tensor,origin,phase-data,shakemap,", "nst": 256, "dmin": 0.85, "rms": 0.97, "gap": 113, "magType": "mww", "type": "earthquake", "title": "M 5.5 - 20 km ESE of Cárdenas, Nicaragua"}, "geometry": {"type": "Point", "coordinates": [-85.3325, 11.1271, 154]}, "id": "us7000mcrs"}, {"type": "Feature", "properties": {"mag": 4.3, "place": "52 km SSE of Quepos, Costa Rica", "time": 1713574789254, "updated": 1719349391040, "tz": null, "url": "https://earthquake.usgs.gov/earthquakes/eventpage/us7000mdd4", "detail": "https://earthquake.usgs.gov/fdsnws/event/1/query?eventid=us7000mdd4&format=geojson", "felt": 1, "cdi": 2, "mmi": null, "alert": null, "status": "reviewed", "tsunami": 0, "sig": 285, "net": "us", "code": "7000mdd4", "ids": ",us7000mdd4,", "sources": ",us,", "types": ",dyfi,moment-tensor,origin,phase-data,", "nst": 31, "dmin": 0.77, "rms": 0.55, "gap": 145, "magType": "mwr", "type": "earthquake", "title": "M 4.3 - 52 km SSE of Quepos, Costa Rica"}, "geometry": {"type": "Point", "coordinates": [-84.055, 8.9686, 15.199]}, "id": "us7000mdd4"}, {"type": "Feature", "properties": {"mag": 5.4, "place": "77 km SSW of Boca Chica, Panama", "time": 1713921642573, "updated": 1720441234228, "tz": null, "url": "https://earthquake.usgs.gov/earthquakes/eventpage/us6000mtc6", "detail": "https://earthquake.usgs.gov/fdsnws/event/1/query?eventid=us6000mtc6&format=geojson", "felt": 4, "cdi": 3.8, "mmi": 4.09, "alert": "green", "status": "reviewed", "tsunami": 0, "sig": 450, "net": "us", "code": "6000mtc6", "ids": ",us6000mtc6,usauto6000mtc6,", "sources": ",us,usauto,", "types": ",dyfi,internal-moment-tensor,losspager,moment-tensor,origin,phase-data,shakemap,", "nst": 119, "dmin": 1.28, "rms": 0.52, "gap": 67, "magType": "mww", "type": "earthquake", "title": "M 5.4 - 77 km SSW of Boca Chica, Panama"}, "geometry": {"type": "Point", "coordinates": [-82.372, 7.5347, 10]}, "id": "us6000mtc6"}, {"type": "Feature", "properties": {"mag": 4, "place": "35 km SE of Burica, Panama", "time": 1713922529726, "updated": 1719958376040, "tz": null, "url": "https://earthquake.usgs.gov/earthquakes/eventpage/us6000mvsh", "detail": "https://earthquake.usgs.gov/fdsnws/event/1/query?eventid=us6000mvsh&format=geojson", "felt": null, "cdi": null, "mmi": null, "alert": null, "status": "reviewed", "tsunami": 0, "sig": 246, "net": "us", "code": "6000mvsh", "ids": ",us6000mvsh,", "sources": ",us,", "types": ",origin,phase-data,", "nst": 20, "dmin": 0.897, "rms": 0.61, "gap": 205, "magType": "mb", "type": "earthquake", "title": "M 4.0 - 35 km SE of Burica, Panama"}, "geometry": {"type": "Point", "coordinates": [-82.6111, 7.8482, 10]}, "id": "us6000mvsh"}, {"type": "Feature", "properties": {"mag": 4, "place": "45 km SE of Burica, Panama", "time": 1713924628569, "updated": 1719958376040, "tz": null, "url": "https://earthquake.usgs.gov/earthquakes/eventpage/us6000mvsk", "detail": "https://earthquake.usgs.gov/fdsnws/event/1/query?eventid=us6000mvsk&format=geojson", "felt": null, "cdi": null, "mmi": null, "alert": null, "status": "reviewed", "tsunami": 0, "sig": 246, "net": "us", "code": "6000mvsk", "ids": ",us6000mvsk,", "sources": ",us,", "types": ",origin,phase-data,", "nst": 18, "dmin": 0.989, "rms": 0.79, "gap": 142, "magType": "mb", "type": "earthquake", "title": "M 4.0 - 45 km SE of Burica, Panama"}, "geometry": {"type": "Point", "coordinates": [-82.5491, 7.7773, 10]}, "id": "us6000mvsk"}, {"type": "Feature", "properties": {"mag": 4.2, "place": "71 km SE of Burica, Panama", "time": 1714270048062, "updated": 1719958368040, "tz": null, "url": "https://earthquake.usgs.gov/earthquakes/eventpage/us6000muin", "detail": "https://earthquake.usgs.gov/fdsnws/event/1/query?eventid=us6000muin&format=geojson", "felt": null, "cdi": null, "mmi": null, "alert": null, "status": "reviewed", "tsunami": 0, "sig": 271, "net": "us", "code": "6000muin", "ids": ",us6000muin,", "sources": ",us,", "types": ",origin,phase-data,", "nst": 22, "dmin": 1.217, "rms": 0.98, "gap": 207, "magType": "mb", "type": "earthquake", "title": "M 4.2 - 71 km SE of Burica, Panama"}, "geometry": {"type": "Point", "coordinates": [-82.4869, 7.5103, 10]}, "id": "us6000muin"}, {"type": "Feature", "properties": {"mag": 4.5, "place": "60 km SSW of Boca Chica, Panama", "time": 1714381203317, "updated": 1721015938040, "tz": null, "url": "https://earthquake.usgs.gov/earthquakes/eventpage/us6000muue", "detail": "https://earthquake.usgs.gov/fdsnws/event/1/query?eventid=us6000muue&format=geojson", "felt": null, "cdi": null, "mmi": null, "alert": null, "status": "reviewed", "tsunami": 0, "sig": 312, "net": "us", "code": "6000muue", "ids": ",us6000muue,", "sources": ",us,", "types": ",origin,phase-data,", "nst": 49, "dmin": 1.128, "rms": 0.87, "gap": 140, "magType": "mb", "type": "earthquake", "title": "M 4.5 - 60 km SSW of Boca Chica, Panama"}, "geometry": {"type": "Point", "coordinates": [-82.3909, 7.6981, 10]}, "id": "us6000muue"}, {"type": "Feature", "properties": {"mag": 4.3, "place": "31 km SW of Dabeiba, Colombia", "time": 1716285498662, "updated": 1722910190040, "tz": null, "url": "https://earthquake.usgs.gov/earthquakes/eventpage/us6000n00i", "detail": "https://earthquake.usgs.gov/fdsnws/event/1/query?eventid=us6000n00i&format=geojson", "felt": 1, "cdi": 3.4, "mmi": null, "alert": null, "status": "reviewed", "tsunami": 0, "sig": 285, "net": "us", "code": "6000n00i", "ids": ",us6000n00i,", "sources": ",us,", "types": ",dyfi,origin,phase-data,", "nst": 32, "dmin": 1.165, "rms": 0.78, "gap": 155, "magType": "mb", "type": "earthquake", "title": "M 4.3 - 31 km SW of Dabeiba, Colombia"}, "geometry": {"type": "Point", "coordinates": [-76.5066, 6.8392, 48.925]}, "id": "us6000n00i"}, {"type": "Feature", "properties": {"mag": 5.1, "place": "199 km SSE of Burica, Panama", "time": 1716527629751, "updated": 1722910213040, "tz": null, "url": "https://earthquake.usgs.gov/earthquakes/eventpage/us6000n0mu", "detail": "https://earthquake.usgs.gov/fdsnws/event/1/query?eventid=us6000n0mu&format=geojson", "felt": 1, "cdi": 2.2, "mmi": null, "alert": null, "status": "reviewed", "tsunami": 0, "sig": 400, "net": "us", "code": "6000n0mu", "ids": ",us6000n0mu,usauto6000n0mu,", "sources": ",us,usauto,", "types": ",dyfi,impact-text,internal-moment-tensor,moment-tensor,origin,phase-data,", "nst": 81, "dmin": 2.276, "rms": 1.17, "gap": 126, "magType": "mww", "type": "earthquake", "title": "M 5.1 - 199 km SSE of Burica, Panama"}, "geometry": {"type": "Point", "coordinates": [-82.5111, 6.2666, 10]}, "id": "us6000n0mu"}, {"type": "Feature", "properties": {"mag": 4.8, "place": "12 km WNW of Progreso, Panama", "time": 1716667897138, "updated": 1722910223040, "tz": null, "url": "https://earthquake.usgs.gov/earthquakes/eventpage/us6000n0zu", "detail": "https://earthquake.usgs.gov/fdsnws/event/1/query?eventid=us6000n0zu&format=geojson", "felt": 3, "cdi": 3.1, "mmi": null, "alert": null, "status": "reviewed", "tsunami": 0, "sig": 355, "net": "us", "code": "6000n0zu", "ids": ",us6000n0zu,", "sources": ",us,", "types": ",dyfi,moment-tensor,origin,phase-data,", "nst": 96, "dmin": 0.38, "rms": 0.82, "gap": 88, "magType": "mww", "type": "earthquake", "title": "M 4.8 - 12 km WNW of Progreso, Panama"}, "geometry": {"type": "Point", "coordinates": [-82.9421, 8.4841, 8.724]}, "id": "us6000n0zu"}, {"type": "Feature", "properties": {"mag": 4.6, "place": "14 km WSW of Canoas, Costa Rica", "time": 1716698230845, "updated": 1722910215040, "tz": null, "url": "https://earthquake.usgs.gov/earthquakes/eventpage/us6000n11l", "detail": "https://earthquake.usgs.gov/fdsnws/event/1/query?eventid=us6000n11l&format=geojson", "felt": 1, "cdi": 2.7, "mmi": null, "alert": null, "status": "reviewed", "tsunami": 0, "sig": 326, "net": "us", "code": "6000n11l", "ids": ",us6000n11l,", "sources": ",us,", "types": ",dyfi,origin,phase-data,", "nst": 76, "dmin": 0.361, "rms": 0.9, "gap": 86, "magType": "mb", "type": "earthquake", "title": "M 4.6 - 14 km WSW of Canoas, Costa Rica"}, "geometry": {"type": "Point", "coordinates": [-82.9655, 8.4976, 10]}, "id": "us6000n11l"}, {"type": "Feature", "properties": {"mag": 4.3, "place": "south of Panama", "time": 1717053046431, "updated": 1722976368040, "tz": null, "url": "https://earthquake.usgs.gov/earthquakes/eventpage/us7000mnxc", "detail": "https://earthquake.usgs.gov/fdsnws/event/1/query?eventid=us7000mnxc&format=geojson", "felt": null, "cdi": null, "mmi": null, "alert": null, "status": "reviewed", "tsunami": 0, "sig": 284, "net": "us", "code": "7000mnxc", "ids": ",us7000mnxc,", "sources": ",us,", "types": ",origin,phase-data,", "nst": 20, "dmin": 3.171, "rms": 0.95, "gap": 172, "magType": "mb", "type": "earthquake", "title": "M 4.3 - south of Panama"}, "geometry": {"type": "Point", "coordinates": [-82.743, 5.2718, 10]}, "id": "us7000mnxc"}, {"type": "Feature", "properties": {"mag": 4.1, "place": "13 km SW of San Marcos, Costa Rica", "time": 1717273972547, "updated": 1722976369040, "tz": null, "url": "https://earthquake.usgs.gov/earthquakes/eventpage/us7000mpi9", "detail": "https://earthquake.usgs.gov/fdsnws/event/1/query?eventid=us7000mpi9&format=geojson", "felt": null, "cdi": null, "mmi": null, "alert": null, "status": "reviewed", "tsunami": 0, "sig": 259, "net": "us", "code": "7000mpi9", "ids": ",us7000mpi9,", "sources": ",us,", "types": ",origin,phase-data,", "nst": 24, "dmin": 0.186, "rms": 0.9, "gap": 142, "magType": "mb", "type": "earthquake", "title": "M 4.1 - 13 km SW of San Marcos, Costa Rica"}, "geometry": {"type": "Point", "coordinates": [-84.1168, 9.5901, 56.621]}, "id": "us7000mpi9"}, {"type": "Feature", "properties": {"mag": 4.6, "place": "57 km SSW of Boca Chica, Panama", "time": 1717768162995, "updated": 1723845564040, "tz": null, "url": "https://earthquake.usgs.gov/earthquakes/eventpage/us7000mqxx", "detail": "https://earthquake.usgs.gov/fdsnws/event/1/query?eventid=us7000mqxx&format=geojson", "felt": null, "cdi": null, "mmi": null, "alert": null, "status": "reviewed", "tsunami": 0, "sig": 326, "net": "us", "code": "7000mqxx", "ids": ",us7000mqxx,", "sources": ",us,", "types": ",moment-tensor,origin,phase-data,", "nst": 63, "dmin": 1.204, "rms": 0.73, "gap": 155, "magType": "mwr", "type": "earthquake", "title": "M 4.6 - 57 km SSW of Boca Chica, Panama"}, "geometry": {"type": "Point", "coordinates": [-82.3251, 7.7136, 9.366]}, "id": "us7000mqxx"}, {"type": "Feature", "properties": {"mag": 4.6, "place": "78 km S of Boca Chica, Panama", "time": 1719174484985, "updated": 1725041825040, "tz": null, "url": "https://earthquake.usgs.gov/earthquakes/eventpage/us7000mu61", "detail": "https://earthquake.usgs.gov/fdsnws/event/1/query?eventid=us7000mu61&format=geojson", "felt": null, "cdi": null, "mmi": null, "alert": null, "status": "reviewed", "tsunami": 0, "sig": 326, "net": "us", "code": "7000mu61", "ids": ",us7000mu61,", "sources": ",us,", "types": ",moment-tensor,origin,phase-data,", "nst": 60, "dmin": 1.313, "rms": 0.9, "gap": 141, "magType": "mwr", "type": "earthquake", "title": "M 4.6 - 78 km S of Boca Chica, Panama"}, "geometry": {"type": "Point", "coordinates": [-82.342, 7.5184, 10]}, "id": "us7000mu61"}, {"type": "Feature", "properties": {"mag": 4.6, "place": "27 km WSW of Murindó, Colombia", "time": 1719342206123, "updated": 1725487060040, "tz": null, "url": "https://earthquake.usgs.gov/earthquakes/eventpage/us6000n84y", "detail": "https://earthquake.usgs.gov/fdsnws/event/1/query?eventid=us6000n84y&format=geojson", "felt": 1, "cdi": 2, "mmi": null, "alert": null, "status": "reviewed", "tsunami": 0, "sig": 326, "net": "us", "code": "6000n84y", "ids": ",us6000n84y,", "sources": ",us,", "types": ",dyfi,moment-tensor,origin,phase-data,", "nst": 96, "dmin": 1.631, "rms": 0.72, "gap": 39, "magType": "mwr", "type": "earthquake", "title": "M 4.6 - 27 km WSW of Murindó, Colombia"}, "geometry": {"type": "Point", "coordinates": [-77.0329, 6.848, 41.197]}, "id": "us6000n84y"}, {"type": "Feature", "properties": {"mag": 4.8, "place": "231 km S of Burica, Panama", "time": 1719612116399, "updated": 1725487063040, "tz": null, "url": "https://earthquake.usgs.gov/earthquakes/eventpage/us6000n91g", "detail": "https://earthquake.usgs.gov/fdsnws/event/1/query?eventid=us6000n91g&format=geojson", "felt": null, "cdi": null, "mmi": null, "alert": null, "status": "reviewed", "tsunami": 0, "sig": 354, "net": "us", "code": "6000n91g", "ids": ",us6000n91g,", "sources": ",us,", "types": ",origin,phase-data,", "nst": 124, "dmin": 2.536, "rms": 0.6, "gap": 86, "magType": "mww", "type": "earthquake", "title": "M 4.8 - 231 km S of Burica, Panama"}, "geometry": {"type": "Point", "coordinates": [-82.6481, 5.9482, 10]}, "id": "us6000n91g"}, {"type": "Feature", "properties": {"mag": 5.3, "place": "2 km SSW of Sioguí Abajo, Panama", "time": 1720432493671, "updated": 1751786289292, "tz": null, "url": "https://earthquake.usgs.gov/earthquakes/eventpage/us7000mxr8", "detail": "https://earthquake.usgs.gov/fdsnws/event/1/query?eventid=us7000mxr8&format=geojson", "felt": 65, "cdi": 5.3, "mmi": null, "alert": null, "status": "reviewed", "tsunami": 0, "sig": 467, "net": "us", "code": "7000mxr8", "ids": ",us7000mxr8,usauto7000mxr8,", "sources": ",us,usauto,", "types": ",dyfi,internal-moment-tensor,moment-tensor,origin,phase-data,", "nst": 94, "dmin": 0.638, "rms": 0.93, "gap": 53, "magType": "mww", "type": "earthquake", "title": "M 5.3 - 2 km SSW of Sioguí Abajo, Panama"}, "geometry": {"type": "Point", "coordinates": [-82.676, 8.4598, 26.677]}, "id": "us7000mxr8"}, {"type": "Feature", "properties": {"mag": 4.3, "place": "0 km SSW of Sioguí Arriba, Panama", "time": 1720441889719, "updated": 1726848052040, "tz": null, "url": "https://earthquake.usgs.gov/earthquakes/eventpage/us7000mxrn", "detail": "https://earthquake.usgs.gov/fdsnws/event/1/query?eventid=us7000mxrn&format=geojson", "felt": null, "cdi": null, "mmi": null, "alert": null, "status": "reviewed", "tsunami": 0, "sig": 284, "net": "us", "code": "7000mxrn", "ids": ",us7000mxrn,", "sources": ",us,", "types": ",moment-tensor,origin,phase-data,", "nst": 23, "dmin": 0.639, "rms": 0.82, "gap": 95, "magType": "mwr", "type": "earthquake", "title": "M 4.3 - 0 km SSW of Sioguí Arriba, Panama"}, "geometry": {"type": "Point", "coordinates": [-82.686, 8.5352, 7.272]}, "id": "us7000mxrn"}, {"type": "Feature", "properties": {"mag": 4.6, "place": "5 km NNW of Belén, Nicaragua", "time": 1720699449229, "updated": 1726848054040, "tz": null, "url": "https://earthquake.usgs.gov/earthquakes/eventpage/us7000myjw", "detail": "https://earthquake.usgs.gov/fdsnws/event/1/query?eventid=us7000myjw&format=geojson", "felt": 1, "cdi": 1, "mmi": null, "alert": null, "status": "reviewed", "tsunami": 0, "sig": 326, "net": "us", "code": "7000myjw", "ids": ",us7000myjw,", "sources": ",us,", "types": ",dyfi,origin,phase-data,", "nst": 50, "dmin": 0.682, "rms": 0.8, "gap": 87, "magType": "mb", "type": "earthquake", "title": "M 4.6 - 5 km NNW of Belén, Nicaragua"}, "geometry": {"type": "Point", "coordinates": [-85.9086, 11.5502, 190.558]}, "id": "us7000myjw"}, {"type": "Feature", "properties": {"mag": 5.4, "place": "17 km ENE of Limones, Panama", "time": 1720906440227, "updated": 1728411768343, "tz": null, "url": "https://earthquake.usgs.gov/earthquakes/eventpage/us7000mz45", "detail": "https://earthquake.usgs.gov/fdsnws/event/1/query?eventid=us7000mz45&format=geojson", "felt": 9, "cdi": 3.8, "mmi": 5.298, "alert": "green", "status": "reviewed", "tsunami": 0, "sig": 452, "net": "us", "code": "7000mz45", "ids": ",us7000mz45,usauto7000mz45,", "sources": ",us,usauto,", "types": ",dyfi,internal-moment-tensor,losspager,moment-tensor,origin,phase-data,shakemap,", "nst": 322, "dmin": 0.647, "rms": 1.13, "gap": 68, "magType": "mww", "type": "earthquake", "title": "M 5.4 - 17 km ENE of Limones, Panama"}, "geometry": {"type": "Point", "coordinates": [-82.7179, 8.1564, 10]}, "id": "us7000mz45"}, {"type": "Feature", "properties": {"mag": 4.4, "place": "4 km S of Manaca Civil, Panama", "time": 1720936385471, "updated": 1726848056040, "tz": null, "url": "https://earthquake.usgs.gov/earthquakes/eventpage/us7000mz5u", "detail": "https://earthquake.usgs.gov/fdsnws/event/1/query?eventid=us7000mz5u&format=geojson", "felt": null, "cdi": null, "mmi": null, "alert": null, "status": "reviewed", "tsunami": 0, "sig": 298, "net": "us", "code": "7000mz5u", "ids": ",us7000mz5u,", "sources": ",us,", "types": ",origin,phase-data,", "nst": 27, "dmin": 0.517, "rms": 0.86, "gap": 122, "magType": "mb", "type": "earthquake", "title": "M 4.4 - 4 km S of Manaca Civil, Panama"}, "geometry": {"type": "Point", "coordinates": [-82.8119, 8.2877, 10]}, "id": "us7000mz5u"}, {"type": "Feature", "properties": {"mag": 4.3, "place": "6 km SSW of Puerto Armuelles, Panama", "time": 1720975739153, "updated": 1726848056040, "tz": null, "url": "https://earthquake.usgs.gov/earthquakes/eventpage/us7000mz83", "detail": "https://earthquake.usgs.gov/fdsnws/event/1/query?eventid=us7000mz83&format=geojson", "felt": null, "cdi": null, "mmi": null, "alert": null, "status": "reviewed", "tsunami": 0, "sig": 284, "net": "us", "code": "7000mz83", "ids": ",us7000mz83,", "sources": ",us,", "types": ",origin,phase-data,", "nst": 22, "dmin": 0.476, "rms": 1.01, "gap": 147, "magType": "mb", "type": "earthquake", "title": "M 4.3 - 6 km SSW of Puerto Armuelles, Panama"}, "geometry": {"type": "Point", "coordinates": [-82.8776, 8.2214, 22.913]}, "id": "us7000mz83"}, {"type": "Feature", "properties": {"mag": 4.4, "place": "6 km SSE of Manaca Civil, Panama", "time": 1721022541941, "updated": 1727563306040, "tz": null, "url": "https://earthquake.usgs.gov/earthquakes/eventpage/us7000mzah", "detail": "https://earthquake.usgs.gov/fdsnws/event/1/query?eventid=us7000mzah&format=geojson", "felt": null, "cdi": null, "mmi": null, "alert": null, "status": "reviewed", "tsunami": 0, "sig": 298, "net": "us", "code": "7000mzah", "ids": ",us7000mzah,", "sources": ",us,", "types": ",origin,phase-data,", "nst": 50, "dmin": 0.534, "rms": 0.62, "gap": 124, "magType": "mb", "type": "earthquake", "title": "M 4.4 - 6 km SSE of Manaca Civil, Panama"}, "geometry": {"type": "Point", "coordinates": [-82.7987, 8.2717, 10]}, "id": "us7000mzah"}, {"type": "Feature", "properties": {"mag": 4.2, "place": "5 km S of Puerto Armuelles, Panama", "time": 1721023176284, "updated": 1727563306040, "tz": null, "url": "https://earthquake.usgs.gov/earthquakes/eventpage/us7000mzaj", "detail": "https://earthquake.usgs.gov/fdsnws/event/1/query?eventid=us7000mzaj&format=geojson", "felt": null, "cdi": null, "mmi": null, "alert": null, "status": "reviewed", "tsunami": 0, "sig": 271, "net": "us", "code": "7000mzaj", "ids": ",us7000mzaj,", "sources": ",us,", "types": ",origin,phase-data,", "nst": 57, "dmin": 0.488, "rms": 0.74, "gap": 123, "magType": "mb", "type": "earthquake", "title": "M 4.2 - 5 km S of Puerto Armuelles, Panama"}, "geometry": {"type": "Point", "coordinates": [-82.86, 8.2318, 10]}, "id": "us7000mzaj"}, {"type": "Feature", "properties": {"mag": 4.4, "place": "south of Panama", "time": 1721292764553, "updated": 1727563337040, "tz": null, "url": "https://earthquake.usgs.gov/earthquakes/eventpage/us7000mzyv", "detail": "https://earthquake.usgs.gov/fdsnws/event/1/query?eventid=us7000mzyv&format=geojson", "felt": null, "cdi": null, "mmi": null, "alert": null, "status": "reviewed", "tsunami": 0, "sig": 298, "net": "us", "code": "7000mzyv", "ids": ",us7000mzyv,", "sources": ",us,", "types": ",origin,phase-data,", "nst": 75, "dmin": 3.371, "rms": 0.91, "gap": 146, "magType": "mb", "type": "earthquake", "title": "M 4.4 - south of Panama"}, "geometry": {"type": "Point", "coordinates": [-82.6026, 5.0943, 10]}, "id": "us7000mzyv"}, {"type": "Feature", "properties": {"mag": 5.7, "place": "8 km SE of Puerto Armuelles, Panama", "time": 1721675975070, "updated": 1742569829125, "tz": null, "url": "https://earthquake.usgs.gov/earthquakes/eventpage/us6000nejp", "detail": "https://earthquake.usgs.gov/fdsnws/event/1/query?eventid=us6000nejp&format=geojson", "felt": 33, "cdi": 5.5, "mmi": 6.505, "alert": "green", "status": "reviewed", "tsunami": 0, "sig": 518, "net": "us", "code": "6000nejp", "ids": ",us6000nejp,usauto6000nejp,pt24204001,at00sh1hos,", "sources": ",us,usauto,pt,at,", "types": ",dyfi,ground-failure,internal-moment-tensor,internal-origin,losspager,moment-tensor,origin,phase-data,shakemap,", "nst": 145, "dmin": 0.541, "rms": 0.86, "gap": 110, "magType": "mww", "type": "earthquake", "title": "M 5.7 - 8 km SE of Puerto Armuelles, Panama"}, "geometry": {"type": "Point", "coordinates": [-82.8075, 8.22, 7]}, "id": "us6000nejp"}, {"type": "Feature", "properties": {"mag": 4.4, "place": "2 km ESE of Manaca Civil, Panama", "time": 1721676489354, "updated": 1728424150005, "tz": null, "url": "https://earthquake.usgs.gov/earthquakes/eventpage/us6000nejs", "detail": "https://earthquake.usgs.gov/fdsnws/event/1/query?eventid=us6000nejs&format=geojson", "felt": null, "cdi": null, "mmi": null, "alert": null, "status": "reviewed", "tsunami": 0, "sig": 298, "net": "us", "code": "6000nejs", "ids": ",us6000nejs,", "sources": ",us,", "types": ",origin,phase-data,", "nst": 24, "dmin": 0.524, "rms": 0.27, "gap": 206, "magType": "mb", "type": "earthquake", "title": "M 4.4 - 2 km ESE of Manaca Civil, Panama"}, "geometry": {"type": "Point", "coordinates": [-82.7985, 8.3169, 10]}, "id": "us6000nejs"}, {"type": "Feature", "properties": {"mag": 4.5, "place": "22 km SE of Manaca Civil, Panama", "time": 1721676600263, "updated": 1728424154005, "tz": null, "url": "https://earthquake.usgs.gov/earthquakes/eventpage/us6000ni7v", "detail": "https://earthquake.usgs.gov/fdsnws/event/1/query?eventid=us6000ni7v&format=geojson", "felt": 1, "cdi": 3.1, "mmi": null, "alert": null, "status": "reviewed", "tsunami": 0, "sig": 312, "net": "us", "code": "6000ni7v", "ids": ",us6000ni7v,", "sources": ",us,", "types": ",dyfi,origin,phase-data,", "nst": 42, "dmin": 0.68, "rms": 0.68, "gap": 184, "magType": "mb", "type": "earthquake", "title": "M 4.5 - 22 km SE of Manaca Civil, Panama"}, "geometry": {"type": "Point", "coordinates": [-82.672, 8.183, 10]}, "id": "us6000ni7v"}, {"type": "Feature", "properties": {"mag": 5.6, "place": "11 km ESE of Puerto Armuelles, Panama", "time": 1721679474414, "updated": 1728424150005, "tz": null, "url": "https://earthquake.usgs.gov/earthquakes/eventpage/us6000nekb", "detail": "https://earthquake.usgs.gov/fdsnws/event/1/query?eventid=us6000nekb&format=geojson", "felt": 12, "cdi": 7.2, "mmi": 6.387, "alert": "green", "status": "reviewed", "tsunami": 0, "sig": 491, "net": "us", "code": "6000nekb", "ids": ",us6000nekb,usauto6000nekb,pt24204002,", "sources": ",us,usauto,pt,", "types": ",dyfi,internal-moment-tensor,internal-origin,losspager,moment-tensor,origin,phase-data,shakemap,", "nst": 139, "dmin": 0.575, "rms": 0.99, "gap": 108, "magType": "mww", "type": "earthquake", "title": "M 5.6 - 11 km ESE of Puerto Armuelles, Panama"}, "geometry": {"type": "Point", "coordinates": [-82.7686, 8.2256, 7]}, "id": "us6000nekb"}, {"type": "Feature", "properties": {"mag": 4.9, "place": "5 km NE of Limones, Panama", "time": 1721681486203, "updated": 1728424150005, "tz": null, "url": "https://earthquake.usgs.gov/earthquakes/eventpage/us6000nekl", "detail": "https://earthquake.usgs.gov/fdsnws/event/1/query?eventid=us6000nekl&format=geojson", "felt": null, "cdi": null, "mmi": null, "alert": null, "status": "reviewed", "tsunami": 0, "sig": 369, "net": "us", "code": "6000nekl", "ids": ",us6000nekl,", "sources": ",us,", "types": ",origin,phase-data,", "nst": 73, "dmin": 0.553, "rms": 0.66, "gap": 129, "magType": "mb", "type": "earthquake", "title": "M 4.9 - 5 km NE of Limones, Panama"}, "geometry": {"type": "Point", "coordinates": [-82.8309, 8.1415, 10]}, "id": "us6000nekl"}, {"type": "Feature", "properties": {"mag": 4.6, "place": "19 km W of Burica, Panama", "time": 1722259463469, "updated": 1728675546040, "tz": null, "url": "https://earthquake.usgs.gov/earthquakes/eventpage/us6000ngni", "detail": "https://earthquake.usgs.gov/fdsnws/event/1/query?eventid=us6000ngni&format=geojson", "felt": null, "cdi": null, "mmi": null, "alert": null, "status": "reviewed", "tsunami": 0, "sig": 326, "net": "us", "code": "6000ngni", "ids": ",us6000ngni,", "sources": ",us,", "types": ",origin,phase-data,", "nst": 53, "dmin": 0.485, "rms": 1.02, "gap": 146, "magType": "mb", "type": "earthquake", "title": "M 4.6 - 19 km W of Burica, Panama"}, "geometry": {"type": "Point", "coordinates": [-83.0467, 8.0051, 10]}, "id": "us6000ngni"}, {"type": "Feature", "properties": {"mag": 4.2, "place": "3 km SSE of La Esperanza, Panama", "time": 1722658148735, "updated": 1728675549040, "tz": null, "url": "https://earthquake.usgs.gov/earthquakes/eventpage/us6000nhsy", "detail": "https://earthquake.usgs.gov/fdsnws/event/1/query?eventid=us6000nhsy&format=geojson", "felt": null, "cdi": null, "mmi": null, "alert": null, "status": "reviewed", "tsunami": 0, "sig": 271, "net": "us", "code": "6000nhsy", "ids": ",us6000nhsy,", "sources": ",us,", "types": ",origin,phase-data,", "nst": 16, "dmin": 0.537, "rms": 0.94, "gap": 119, "magType": "mb", "type": "earthquake", "title": "M 4.2 - 3 km SSE of La Esperanza, Panama"}, "geometry": {"type": "Point", "coordinates": [-82.7776, 8.3764, 10]}, "id": "us6000nhsy"}, {"type": "Feature", "properties": {"mag": 4.1, "place": "47 km S of Quepos, Costa Rica", "time": 1723427925738, "updated": 1729957680040, "tz": null, "url": "https://earthquake.usgs.gov/earthquakes/eventpage/us6000npnk", "detail": "https://earthquake.usgs.gov/fdsnws/event/1/query?eventid=us6000npnk&format=geojson", "felt": null, "cdi": null, "mmi": null, "alert": null, "status": "reviewed", "tsunami": 0, "sig": 259, "net": "us", "code": "6000npnk", "ids": ",us6000npnk,", "sources": ",us,", "types": ",origin,phase-data,", "nst": 16, "dmin": 0.996, "rms": 0.79, "gap": 177, "magType": "mb", "type": "earthquake", "title": "M 4.1 - 47 km S of Quepos, Costa Rica"}, "geometry": {"type": "Point", "coordinates": [-84.1434, 9.0007, 28.729]}, "id": "us6000npnk"}, {"type": "Feature", "properties": {"mag": 3.2, "place": "10 km ENE of Ipís, Costa Rica", "time": 1723702830787, "updated": 1729957724040, "tz": null, "url": "https://earthquake.usgs.gov/earthquakes/eventpage/us7000n75q", "detail": "https://earthquake.usgs.gov/fdsnws/event/1/query?eventid=us7000n75q&format=geojson", "felt": 3, "cdi": 4.6, "mmi": null, "alert": null, "status": "reviewed", "tsunami": 0, "sig": 159, "net": "us", "code": "7000n75q", "ids": ",us7000n75q,", "sources": ",us,", "types": ",dyfi,origin,phase-data,", "nst": 7, "dmin": 0.173, "rms": 0.67, "gap": 159, "magType": "ml", "type": "earthquake", "title": "M 3.2 - 10 km ENE of Ipís, Costa Rica"}, "geometry": {"type": "Point", "coordinates": [-83.9366, 10.0189, 10]}, "id": "us7000n75q"}, {"type": "Feature", "properties": {"mag": 5.8, "place": "83 km S of Boca Chica, Panama", "time": 1724648924183, "updated": 1731187153040, "tz": null, "url": "https://earthquake.usgs.gov/earthquakes/eventpage/us7000n9fn", "detail": "https://earthquake.usgs.gov/fdsnws/event/1/query?eventid=us7000n9fn&format=geojson", "felt": 13, "cdi": 8.2, "mmi": 4.803, "alert": "green", "status": "reviewed", "tsunami": 0, "sig": 528, "net": "us", "code": "7000n9fn", "ids": ",us7000n9fn,usauto7000n9fn,at00sit7ml,pt24239000,", "sources": ",us,usauto,at,pt,", "types": ",dyfi,internal-moment-tensor,internal-origin,losspager,moment-tensor,origin,phase-data,shakemap,", "nst": 262, "dmin": 1.402, "rms": 0.73, "gap": 123, "magType": "mww", "type": "earthquake", "title": "M 5.8 - 83 km S of Boca Chica, Panama"}, "geometry": {"type": "Point", "coordinates": [-82.2687, 7.4653, 10]}, "id": "us7000n9fn"}, {"type": "Feature", "properties": {"mag": 5.1, "place": "288 km SW of Arenas, Panama", "time": 1725053134385, "updated": 1731187130040, "tz": null, "url": "https://earthquake.usgs.gov/earthquakes/eventpage/us6000nnrw", "detail": "https://earthquake.usgs.gov/fdsnws/event/1/query?eventid=us6000nnrw&format=geojson", "felt": 1, "cdi": 1, "mmi": null, "alert": null, "status": "reviewed", "tsunami": 0, "sig": 400, "net": "us", "code": "6000nnrw", "ids": ",us6000nnrw,usauto6000nnrw,", "sources": ",us,usauto,", "types": ",dyfi,internal-moment-tensor,moment-tensor,origin,phase-data,", "nst": 85, "dmin": 3.102, "rms": 0.76, "gap": 73, "magType": "mww", "type": "earthquake", "title": "M 5.1 - 288 km SW of Arenas, Panama"}, "geometry": {"type": "Point", "coordinates": [-82.5537, 5.3837, 10]}, "id": "us6000nnrw"}, {"type": "Feature", "properties": {"mag": 4.8, "place": "south of Panama", "time": 1725467965394, "updated": 1731687594040, "tz": null, "url": "https://earthquake.usgs.gov/earthquakes/eventpage/us6000nppn", "detail": "https://earthquake.usgs.gov/fdsnws/event/1/query?eventid=us6000nppn&format=geojson", "felt": null, "cdi": null, "mmi": null, "alert": null, "status": "reviewed", "tsunami": 0, "sig": 354, "net": "us", "code": "6000nppn", "ids": ",us6000nppn,", "sources": ",us,", "types": ",origin,phase-data,", "nst": 56, "dmin": 3.231, "rms": 0.77, "gap": 170, "magType": "mb", "type": "earthquake", "title": "M 4.8 - south of Panama"}, "geometry": {"type": "Point", "coordinates": [-82.5712, 5.2462, 10]}, "id": "us6000nppn"}, {"type": "Feature", "properties": {"mag": 4.8, "place": "298 km SW of Arenas, Panama", "time": 1725471045997, "updated": 1731687594040, "tz": null, "url": "https://earthquake.usgs.gov/earthquakes/eventpage/us6000npq3", "detail": "https://earthquake.usgs.gov/fdsnws/event/1/query?eventid=us6000npq3&format=geojson", "felt": null, "cdi": null, "mmi": null, "alert": null, "status": "reviewed", "tsunami": 0, "sig": 354, "net": "us", "code": "6000npq3", "ids": ",us6000npq3,", "sources": ",us,", "types": ",origin,phase-data,", "nst": 113, "dmin": 3.217, "rms": 0.8, "gap": 68, "magType": "mww", "type": "earthquake", "title": "M 4.8 - 298 km SW of Arenas, Panama"}, "geometry": {"type": "Point", "coordinates": [-82.5432, 5.2666, 10]}, "id": "us6000npq3"}, {"type": "Feature", "properties": {"mag": 4.3, "place": "14 km NNW of Belén, Nicaragua", "time": 1726175226516, "updated": 1732229936040, "tz": null, "url": "https://earthquake.usgs.gov/earthquakes/eventpage/us7000ndd6", "detail": "https://earthquake.usgs.gov/fdsnws/event/1/query?eventid=us7000ndd6&format=geojson", "felt": null, "cdi": null, "mmi": null, "alert": null, "status": "reviewed", "tsunami": 0, "sig": 284, "net": "us", "code": "7000ndd6", "ids": ",us7000ndd6,", "sources": ",us,", "types": ",origin,phase-data,", "nst": 25, "dmin": 0.61, "rms": 0.64, "gap": 156, "magType": "mb", "type": "earthquake", "title": "M 4.3 - 14 km NNW of Belén, Nicaragua"}, "geometry": {"type": "Point", "coordinates": [-85.9199, 11.6268, 163.008]}, "id": "us7000ndd6"}, {"type": "Feature", "properties": {"mag": 5, "place": "south of Panama", "time": 1726645948320, "updated": 1732404351040, "tz": null, "url": "https://earthquake.usgs.gov/earthquakes/eventpage/us6000nsuw", "detail": "https://earthquake.usgs.gov/fdsnws/event/1/query?eventid=us6000nsuw&format=geojson", "felt": null, "cdi": null, "mmi": null, "alert": null, "status": "reviewed", "tsunami": 0, "sig": 385, "net": "us", "code": "6000nsuw", "ids": ",usauto6000nsuw,us6000nsuw,", "sources": ",usauto,us,", "types": ",internal-moment-tensor,moment-tensor,origin,phase-data,", "nst": 83, "dmin": 4.105, "rms": 0.91, "gap": 73, "magType": "mww", "type": "earthquake", "title": "M 5.0 - south of Panama"}, "geometry": {"type": "Point", "coordinates": [-82.659, 5.1719, 10]}, "id": "us6000nsuw"}, {"type": "Feature", "properties": {"mag": 4.5, "place": "254 km S of Burica, Panama", "time": 1728547378934, "updated": 1734968792040, "tz": null, "url": "https://earthquake.usgs.gov/earthquakes/eventpage/us6000nxsq", "detail": "https://earthquake.usgs.gov/fdsnws/event/1/query?eventid=us6000nxsq&format=geojson", "felt": null, "cdi": null, "mmi": null, "alert": null, "status": "reviewed", "tsunami": 0, "sig": 312, "net": "us", "code": "6000nxsq", "ids": ",us6000nxsq,", "sources": ",us,", "types": ",origin,phase-data,", "nst": 28, "dmin": 2.747, "rms": 0.45, "gap": 161, "magType": "mb", "type": "earthquake", "title": "M 4.5 - 254 km S of Burica, Panama"}, "geometry": {"type": "Point", "coordinates": [-82.5629, 5.7512, 10]}, "id": "us6000nxsq"}, {"type": "Feature", "properties": {"mag": 4.3, "place": "14 km S of Parrita, Costa Rica", "time": 1728699883065, "updated": 1734968821040, "tz": null, "url": "https://earthquake.usgs.gov/earthquakes/eventpage/us6000ny8a", "detail": "https://earthquake.usgs.gov/fdsnws/event/1/query?eventid=us6000ny8a&format=geojson", "felt": null, "cdi": null, "mmi": null, "alert": null, "status": "reviewed", "tsunami": 0, "sig": 284, "net": "us", "code": "6000ny8a", "ids": ",us6000ny8a,", "sources": ",us,", "types": ",origin,phase-data,", "nst": 19, "dmin": 0.477, "rms": 1.12, "gap": 144, "magType": "mb", "type": "earthquake", "title": "M 4.3 - 14 km S of Parrita, Costa Rica"}, "geometry": {"type": "Point", "coordinates": [-84.3375, 9.3926, 11.644]}, "id": "us6000ny8a"}, {"type": "Feature", "properties": {"mag": 4.9, "place": "33 km WNW of Sardinal, Costa Rica", "time": 1728757071475, "updated": 1734968830040, "tz": null, "url": "https://earthquake.usgs.gov/earthquakes/eventpage/us6000nyb6", "detail": "https://earthquake.usgs.gov/fdsnws/event/1/query?eventid=us6000nyb6&format=geojson", "felt": null, "cdi": null, "mmi": null, "alert": null, "status": "reviewed", "tsunami": 0, "sig": 369, "net": "us", "code": "6000nyb6", "ids": ",us6000nyb6,", "sources": ",us,", "types": ",origin,phase-data,", "nst": 172, "dmin": 0.666, "rms": 0.7, "gap": 144, "magType": "mb", "type": "earthquake", "title": "M 4.9 - 33 km WNW of Sardinal, Costa Rica"}, "geometry": {"type": "Point", "coordinates": [-85.9454, 10.5949, 64.679]}, "id": "us6000nyb6"}, {"type": "Feature", "properties": {"mag": 4.3, "place": "13 km N of Cañas, Costa Rica", "time": 1729088976482, "updated": 1735254222040, "tz": null, "url": "https://earthquake.usgs.gov/earthquakes/eventpage/us6000nz32", "detail": "https://earthquake.usgs.gov/fdsnws/event/1/query?eventid=us6000nz32&format=geojson", "felt": null, "cdi": null, "mmi": null, "alert": null, "status": "reviewed", "tsunami": 0, "sig": 284, "net": "us", "code": "6000nz32", "ids": ",us6000nz32,", "sources": ",us,", "types": ",origin,phase-data,", "nst": 29, "dmin": 0.286, "rms": 0.63, "gap": 151, "magType": "mb", "type": "earthquake", "title": "M 4.3 - 13 km N of Cañas, Costa Rica"}, "geometry": {"type": "Point", "coordinates": [-85.0775, 10.5508, 65.437]}, "id": "us6000nz32"}, {"type": "Feature", "properties": {"mag": 4.3, "place": "13 km WSW of Tamarindo, Costa Rica", "time": 1729228155349, "updated": 1735254231040, "tz": null, "url": "https://earthquake.usgs.gov/earthquakes/eventpage/us7000nqel", "detail": "https://earthquake.usgs.gov/fdsnws/event/1/query?eventid=us7000nqel&format=geojson", "felt": null, "cdi": null, "mmi": null, "alert": null, "status": "reviewed", "tsunami": 0, "sig": 284, "net": "us", "code": "7000nqel", "ids": ",us7000nqel,", "sources": ",us,", "types": ",origin,phase-data,", "nst": 33, "dmin": 0.56, "rms": 0.46, "gap": 189, "magType": "mb", "type": "earthquake", "title": "M 4.3 - 13 km WSW of Tamarindo, Costa Rica"}, "geometry": {"type": "Point", "coordinates": [-85.9504, 10.2375, 31.131]}, "id": "us7000nqel"}, {"type": "Feature", "properties": {"mag": 4.6, "place": "281 km S of Burica, Panama", "time": 1729339317611, "updated": 1735254246040, "tz": null, "url": "https://earthquake.usgs.gov/earthquakes/eventpage/us6000nzql", "detail": "https://earthquake.usgs.gov/fdsnws/event/1/query?eventid=us6000nzql&format=geojson", "felt": null, "cdi": null, "mmi": null, "alert": null, "status": "reviewed", "tsunami": 0, "sig": 326, "net": "us", "code": "6000nzql", "ids": ",us6000nzql,", "sources": ",us,", "types": ",origin,phase-data,", "nst": 54, "dmin": 2.971, "rms": 0.89, "gap": 136, "magType": "mb", "type": "earthquake", "title": "M 4.6 - 281 km S of Burica, Panama"}, "geometry": {"type": "Point", "coordinates": [-82.6346, 5.4996, 10]}, "id": "us6000nzql"}, {"type": "Feature", "properties": {"mag": 4.6, "place": "125 km WNW of Pizarro, Colombia", "time": 1729801919106, "updated": 1736032079040, "tz": null, "url": "https://earthquake.usgs.gov/earthquakes/eventpage/us7000nmzv", "detail": "https://earthquake.usgs.gov/fdsnws/event/1/query?eventid=us7000nmzv&format=geojson", "felt": null, "cdi": null, "mmi": null, "alert": null, "status": "reviewed", "tsunami": 0, "sig": 326, "net": "us", "code": "7000nmzv", "ids": ",us7000nmzv,", "sources": ",us,", "types": ",origin,phase-data,", "nst": 60, "dmin": 2.93, "rms": 0.76, "gap": 121, "magType": "mb", "type": "earthquake", "title": "M 4.6 - 125 km WNW of Pizarro, Colombia"}, "geometry": {"type": "Point", "coordinates": [-78.3798, 5.4511, 10]}, "id": "us7000nmzv"}, {"type": "Feature", "properties": {"mag": 4.6, "place": "75 km S of Boca Chica, Panama", "time": 1729893333326, "updated": 1736032092040, "tz": null, "url": "https://earthquake.usgs.gov/earthquakes/eventpage/us7000nn8v", "detail": "https://earthquake.usgs.gov/fdsnws/event/1/query?eventid=us7000nn8v&format=geojson", "felt": null, "cdi": null, "mmi": null, "alert": null, "status": "reviewed", "tsunami": 0, "sig": 326, "net": "us", "code": "7000nn8v", "ids": ",us7000nn8v,", "sources": ",us,", "types": ",origin,phase-data,", "nst": 51, "dmin": 1.317, "rms": 0.99, "gap": 149, "magType": "mww", "type": "earthquake", "title": "M 4.6 - 75 km S of Boca Chica, Panama"}, "geometry": {"type": "Point", "coordinates": [-82.3132, 7.5445, 10]}, "id": "us7000nn8v"}, {"type": "Feature", "properties": {"mag": 4.4, "place": "200 km SW of Puerto Cortés, Costa Rica", "time": 1730054697656, "updated": 1736032110040, "tz": null, "url": "https://earthquake.usgs.gov/earthquakes/eventpage/us7000nnia", "detail": "https://earthquake.usgs.gov/fdsnws/event/1/query?eventid=us7000nnia&format=geojson", "felt": null, "cdi": null, "mmi": null, "alert": null, "status": "reviewed", "tsunami": 0, "sig": 298, "net": "us", "code": "7000nnia", "ids": ",us7000nnia,", "sources": ",us,", "types": ",origin,phase-data,", "nst": 31, "dmin": 1.634, "rms": 0.67, "gap": 154, "magType": "mb", "type": "earthquake", "title": "M 4.4 - 200 km SW of Puerto Cortés, Costa Rica"}, "geometry": {"type": "Point", "coordinates": [-84.7881, 7.6611, 10]}, "id": "us7000nnia"}, {"type": "Feature", "properties": {"mag": 4.6, "place": "6 km NW of Murindó, Colombia", "time": 1730099317689, "updated": 1737053051040, "tz": null, "url": "https://earthquake.usgs.gov/earthquakes/eventpage/us7000nnla", "detail": "https://earthquake.usgs.gov/fdsnws/event/1/query?eventid=us7000nnla&format=geojson", "felt": null, "cdi": null, "mmi": null, "alert": null, "status": "reviewed", "tsunami": 0, "sig": 326, "net": "us", "code": "7000nnla", "ids": ",us7000nnla,", "sources": ",us,", "types": ",origin,phase-data,", "nst": 105, "dmin": 1.562, "rms": 0.64, "gap": 83, "magType": "mb", "type": "earthquake", "title": "M 4.6 - 6 km NW of Murindó, Colombia"}, "geometry": {"type": "Point", "coordinates": [-76.8664, 7.0174, 10]}, "id": "us7000nnla"}, {"type": "Feature", "properties": {"mag": 5, "place": "41 km NNW of Pizarro, Colombia", "time": 1730776446554, "updated": 1737748274040, "tz": null, "url": "https://earthquake.usgs.gov/earthquakes/eventpage/us7000npzi", "detail": "https://earthquake.usgs.gov/fdsnws/event/1/query?eventid=us7000npzi&format=geojson", "felt": 1, "cdi": 0, "mmi": null, "alert": null, "status": "reviewed", "tsunami": 0, "sig": 385, "net": "us", "code": "7000npzi", "ids": ",us7000npzi,usauto7000npzi,", "sources": ",us,usauto,", "types": ",dyfi,internal-moment-tensor,moment-tensor,origin,phase-data,", "nst": 60, "dmin": 2.109, "rms": 0.67, "gap": 61, "magType": "mww", "type": "earthquake", "title": "M 5.0 - 41 km NNW of Pizarro, Colombia"}, "geometry": {"type": "Point", "coordinates": [-77.462, 5.3197, 31.25]}, "id": "us7000npzi"}, {"type": "Feature", "properties": {"mag": 5.6, "place": "79 km SE of Burica, Panama", "time": 1731146620690, "updated": 1737748287040, "tz": null, "url": "https://earthquake.usgs.gov/earthquakes/eventpage/us7000nqv1", "detail": "https://earthquake.usgs.gov/fdsnws/event/1/query?eventid=us7000nqv1&format=geojson", "felt": 1, "cdi": 2.5, "mmi": 4.273, "alert": "green", "status": "reviewed", "tsunami": 0, "sig": 483, "net": "us", "code": "7000nqv1", "ids": ",us7000nqv1,usauto7000nqv1,pt24314000,", "sources": ",us,usauto,pt,", "types": ",dyfi,internal-moment-tensor,internal-origin,losspager,moment-tensor,origin,phase-data,shakemap,", "nst": 78, "dmin": 1.95, "rms": 0.82, "gap": 92, "magType": "mww", "type": "earthquake", "title": "M 5.6 - 79 km SE of Burica, Panama"}, "geometry": {"type": "Point", "coordinates": [-82.3993, 7.4901, 10]}, "id": "us7000nqv1"}, {"type": "Feature", "properties": {"mag": 4.5, "place": "63 km SE of Burica, Panama", "time": 1731150242567, "updated": 1737748287040, "tz": null, "url": "https://earthquake.usgs.gov/earthquakes/eventpage/us7000nqvb", "detail": "https://earthquake.usgs.gov/fdsnws/event/1/query?eventid=us7000nqvb&format=geojson", "felt": null, "cdi": null, "mmi": null, "alert": null, "status": "reviewed", "tsunami": 0, "sig": 312, "net": "us", "code": "7000nqvb", "ids": ",us7000nqvb,", "sources": ",us,", "types": ",origin,phase-data,", "nst": 50, "dmin": 1.813, "rms": 0.61, "gap": 141, "magType": "mb", "type": "earthquake", "title": "M 4.5 - 63 km SE of Burica, Panama"}, "geometry": {"type": "Point", "coordinates": [-82.4935, 7.5987, 10]}, "id": "us7000nqvb"}, {"type": "Feature", "properties": {"mag": 5.8, "place": "77 km SE of Burica, Panama", "time": 1731180618781, "updated": 1737748288040, "tz": null, "url": "https://earthquake.usgs.gov/earthquakes/eventpage/us7000nqwx", "detail": "https://earthquake.usgs.gov/fdsnws/event/1/query?eventid=us7000nqwx&format=geojson", "felt": 0, "cdi": 1, "mmi": 4.381, "alert": "green", "status": "reviewed", "tsunami": 0, "sig": 518, "net": "us", "code": "7000nqwx", "ids": ",us7000nqwx,usauto7000nqwx,pt24314002,at00smp7im,", "sources": ",us,usauto,pt,at,", "types": ",dyfi,internal-moment-tensor,internal-origin,losspager,moment-tensor,origin,phase-data,shakemap,", "nst": 91, "dmin": 1.926, "rms": 0.74, "gap": 59, "magType": "mww", "type": "earthquake", "title": "M 5.8 - 77 km SE of Burica, Panama"}, "geometry": {"type": "Point", "coordinates": [-82.3895, 7.5218, 10]}, "id": "us7000nqwx"}, {"type": "Feature", "properties": {"mag": 4.9, "place": "164 km SSE of Burica, Panama", "time": 1731642407213, "updated": 1737908997040, "tz": null, "url": "https://earthquake.usgs.gov/earthquakes/eventpage/us7000nrwt", "detail": "https://earthquake.usgs.gov/fdsnws/event/1/query?eventid=us7000nrwt&format=geojson", "felt": null, "cdi": null, "mmi": null, "alert": null, "status": "reviewed", "tsunami": 0, "sig": 369, "net": "us", "code": "7000nrwt", "ids": ",usauto7000nrwt,us7000nrwt,", "sources": ",usauto,us,", "types": ",internal-moment-tensor,moment-tensor,origin,phase-data,", "nst": 40, "dmin": 2.751, "rms": 1.18, "gap": 167, "magType": "mww", "type": "earthquake", "title": "M 4.9 - 164 km SSE of Burica, Panama"}, "geometry": {"type": "Point", "coordinates": [-82.3689, 6.6353, 10]}, "id": "us7000nrwt"}, {"type": "Feature", "properties": {"mag": 4.8, "place": "3 km SW of Burica, Panama", "time": 1732155823731, "updated": 1738256431040, "tz": null, "url": "https://earthquake.usgs.gov/earthquakes/eventpage/us6000p6p4", "detail": "https://earthquake.usgs.gov/fdsnws/event/1/query?eventid=us6000p6p4&format=geojson", "felt": 4, "cdi": 3.1, "mmi": null, "alert": null, "status": "reviewed", "tsunami": 0, "sig": 356, "net": "us", "code": "6000p6p4", "ids": ",us6000p6p4,", "sources": ",us,", "types": ",dyfi,moment-tensor,origin,phase-data,", "nst": 58, "dmin": 1.29, "rms": 1.17, "gap": 87, "magType": "mww", "type": "earthquake", "title": "M 4.8 - 3 km SW of Burica, Panama"}, "geometry": {"type": "Point", "coordinates": [-82.8917, 8.0131, 10]}, "id": "us6000p6p4"}, {"type": "Feature", "properties": {"mag": 4.4, "place": "53 km SW of Golfito, Costa Rica", "time": 1733154450446, "updated": 1739644274040, "tz": null, "url": "https://earthquake.usgs.gov/earthquakes/eventpage/us7000nyii", "detail": "https://earthquake.usgs.gov/fdsnws/event/1/query?eventid=us7000nyii&format=geojson", "felt": null, "cdi": null, "mmi": null, "alert": null, "status": "reviewed", "tsunami": 0, "sig": 298, "net": "us", "code": "7000nyii", "ids": ",us7000nyii,", "sources": ",us,", "types": ",origin,phase-data,", "nst": 27, "dmin": 1.057, "rms": 0.56, "gap": 173, "magType": "mb", "type": "earthquake", "title": "M 4.4 - 53 km SW of Golfito, Costa Rica"}, "geometry": {"type": "Point", "coordinates": [-83.3941, 8.2092, 10]}, "id": "us7000nyii"}, {"type": "Feature", "properties": {"mag": 4.5, "place": "11 km NW of Limones, Panama", "time": 1734200390214, "updated": 1739908979040, "tz": null, "url": "https://earthquake.usgs.gov/earthquakes/eventpage/us6000ph6u", "detail": "https://earthquake.usgs.gov/fdsnws/event/1/query?eventid=us6000ph6u&format=geojson", "felt": null, "cdi": null, "mmi": null, "alert": null, "status": "reviewed", "tsunami": 0, "sig": 312, "net": "us", "code": "6000ph6u", "ids": ",us6000ph6u,", "sources": ",us,", "types": ",origin,phase-data,", "nst": 43, "dmin": 1.879, "rms": 0.47, "gap": 164, "magType": "mb", "type": "earthquake", "title": "M 4.5 - 11 km NW of Limones, Panama"}, "geometry": {"type": "Point", "coordinates": [-82.9302, 8.1818, 35]}, "id": "us6000ph6u"}, {"type": "Feature", "properties": {"mag": 4.3, "place": "86 km SSE of Burica, Panama", "time": 1734477812608, "updated": 1740677452040, "tz": null, "url": "https://earthquake.usgs.gov/earthquakes/eventpage/us7000nznx", "detail": "https://earthquake.usgs.gov/fdsnws/event/1/query?eventid=us7000nznx&format=geojson", "felt": null, "cdi": null, "mmi": null, "alert": null, "status": "reviewed", "tsunami": 0, "sig": 284, "net": "us", "code": "7000nznx", "ids": ",us7000nznx,", "sources": ",us,", "types": ",origin,phase-data,", "nst": 48, "dmin": 2.805, "rms": 0.71, "gap": 144, "magType": "mb", "type": "earthquake", "title": "M 4.3 - 86 km SSE of Burica, Panama"}, "geometry": {"type": "Point", "coordinates": [-82.5032, 7.3463, 10]}, "id": "us7000nznx"}, {"type": "Feature", "properties": {"mag": 4.5, "place": "13 km SE of San Juan del Sur, Nicaragua", "time": 1735148873483, "updated": 1741473550040, "tz": null, "url": "https://earthquake.usgs.gov/earthquakes/eventpage/us6000pfl4", "detail": "https://earthquake.usgs.gov/fdsnws/event/1/query?eventid=us6000pfl4&format=geojson", "felt": 2, "cdi": 2.7, "mmi": null, "alert": null, "status": "reviewed", "tsunami": 0, "sig": 312, "net": "us", "code": "6000pfl4", "ids": ",us6000pfl4,", "sources": ",us,", "types": ",dyfi,origin,phase-data,", "nst": 66, "dmin": 0.542, "rms": 1.23, "gap": 90, "magType": "mb", "type": "earthquake", "title": "M 4.5 - 13 km SE of San Juan del Sur, Nicaragua"}, "geometry": {"type": "Point", "coordinates": [-85.7826, 11.1725, 90.305]}, "id": "us6000pfl4"}, {"type": "Feature", "properties": {"mag": 4, "place": "9 km NW of San Juan del Sur, Nicaragua", "time": 1735513210566, "updated": 1741473552040, "tz": null, "url": "https://earthquake.usgs.gov/earthquakes/eventpage/us6000pgcx", "detail": "https://earthquake.usgs.gov/fdsnws/event/1/query?eventid=us6000pgcx&format=geojson", "felt": null, "cdi": null, "mmi": null, "alert": null, "status": "reviewed", "tsunami": 0, "sig": 246, "net": "us", "code": "6000pgcx", "ids": ",us6000pgcx,", "sources": ",us,", "types": ",origin,phase-data,", "nst": 33, "dmin": 0.745, "rms": 0.55, "gap": 142, "magType": "mb", "type": "earthquake", "title": "M 4.0 - 9 km NW of San Juan del Sur, Nicaragua"}, "geometry": {"type": "Point", "coordinates": [-85.9299, 11.3207, 100.943]}, "id": "us6000pgcx"}], "bbox": [-85.9504, 5.0822, 7, -76.2307, 11.6268, 193.447]}